n,long_rd,lat_rd,row,name,city,country,IATA,ICAO,lat,long,altitude,timezone,DST,tz,type,source
1,-162.599,66.8847,3693,Ralph Wien Memorial Airport,Kotzebue,United States,OTZ,PAOT,66.88469696,-162.598999,14,-9,A,America/Anchorage,airport,OurAirports
1,-161.838,60.7798,3599,Bethel Airport,Bethel,United States,BET,PABE,60.77980042,-161.8379974,126,-9,A,America/Anchorage,airport,OurAirports
1,-159.339,21.976,3602,Lihue Airport,Lihue,United States,LIH,PHLI,21.97599983215332,-159.33900451660156,153,-10,N,Pacific/Honolulu,airport,OurAirports
1,-157.922,21.3187,NA,NA,NA,NA,NA,NA,NA,NA,NA,NA,NA,NA,NA,NA
1,-157.096,21.1529,3705,Molokai Airport,Molokai,United States,MKK,PHMK,21.15290069580078,-157.0959930419922,454,-10,N,Pacific/Honolulu,airport,OurAirports
1,-156.951,20.7856,3851,Lanai Airport,Lanai,United States,LNY,PHNY,20.785600662231445,-156.9510040283203,1308,-10,N,Pacific/Honolulu,airport,OurAirports
1,-156.673,20.9629,3796,Kapalua Airport,Lahania-kapalua,United States,JHM,PHJH,20.962900161743164,-156.67300415039062,256,-10,N,Pacific/Honolulu,airport,OurAirports
1,-156.43,20.8986,3456,Kahului Airport,Kahului,United States,OGG,PHOG,20.8986,-156.429993,54,-10,N,Pacific/Honolulu,airport,OurAirports
1,-156.046,19.7388,NA,NA,NA,NA,NA,NA,NA,NA,NA,NA,NA,NA,NA,NA
1,-155.048,19.7214,3415,Hilo International Airport,Hilo,United States,ITO,PHTO,19.721399307250977,-155.04800415039062,38,-10,N,Pacific/Honolulu,airport,OurAirports
1,-152.494,57.75,3531,Kodiak Airport,Kodiak,United States,ADQ,PADQ,57.75,-152.4940033,78,-9,A,America/Anchorage,airport,OurAirports
1,-151.751,-16.4444,1989,Bora Bora Airport,Bora Bora,French Polynesia,BOB,NTTB,-16.444400787353516,-151.75100708007812,10,-10,U,Pacific/Tahiti,airport,OurAirports
1,-151.245,60.5731,3628,Kenai Municipal Airport,Kenai,United States,ENA,PAEN,60.57310104370117,-151.2449951171875,99,-9,A,America/Anchorage,airport,OurAirports
2,-149.996,61.1744,3774,Ted Stevens Anchorage International Airport,Anchorage,United States,ANC,PANC,61.174400329589844,-149.99600219726562,152,-9,A,America/Anchorage,airport,OurAirports
1,-149.607,-17.5537,4075,Faa'a International Airport,Papeete,French Polynesia,PPT,NTAA,-17.553699,-149.606995,5,-10,U,Pacific/Tahiti,airport,OurAirports
1,-147.856,64.8151,3832,Fairbanks International Airport,Fairbanks,United States,FAI,PAFA,64.81510162,-147.8560028,439,-9,A,America/Anchorage,airport,OurAirports
1,-135.362,57.0471,3856,Sitka Rocky Gutierrez Airport,Sitka,United States,SIT,PASI,57.04710006713867,-135.36199951171875,21,-9,A,America/Anchorage,airport,OurAirports
1,-135.067,60.7096,176,Whitehorse / Erik Nielsen International Airport,Whitehorse,Canada,YXY,CYXY,60.7095985413,-135.067001343,2317,-8,A,America/Vancouver,airport,OurAirports
1,-134.576,58.355,3492,Juneau International Airport,Juneau,United States,JNU,PAJN,58.35499954223633,-134.5760040283203,21,-9,A,America/Anchorage,airport,OurAirports
1,-131.714,55.3556,3808,Ketchikan International Airport,Ketchikan,United States,KTN,PAKT,55.35559845,-131.7140045,89,-9,A,America/Anchorage,airport,OurAirports
1,-124.887,49.7108,119,Comox Airport,Comox,Canada,YQQ,CYQQ,49.71080017089844,-124.88700103759766,84,-8,A,America/Vancouver,airport,OurAirports
1,-124.246,43.4171,5757,Southwest Oregon Regional Airport,North Bend,United States,OTH,KOTH,43.41709899902344,-124.24600219726562,17,-8,A,America/Los_Angeles,airport,OurAirports
1,-124.237,41.7802,5727,Jack Mc Namara Field Airport,Crescent City,United States,CEC,KCEC,41.78020096,-124.2369995,61,-8,A,America/Los_Angeles,airport,OurAirports
1,-124.109,40.9781,4384,California Redwood Coast-Humboldt County Airport,Arcata CA,United States,ACV,KACV,40.978101,-124.109,221,-8,A,America/Los_Angeles,airport,OurAirports
1,-123.8699,49.055,33,Nanaimo Airport,Nanaimo,Canada,YCD,CYCD,49.054970224899996,-123.869862556,92,-8,A,America/Vancouver,airport,OurAirports
1,-123.426,48.6469,184,Victoria International Airport,Victoria,Canada,YYJ,CYYJ,48.646900177,-123.426002502,63,-8,A,America/Vancouver,airport,OurAirports
1,-123.212,44.1246,4099,Mahlon Sweet Field,Eugene,United States,EUG,KEUG,44.12459945678711,-123.21199798583984,374,-8,A,America/Los_Angeles,airport,OurAirports
1,-123.184,49.1939,156,Vancouver International Airport,Vancouver,Canada,YVR,CYVR,49.193901062,-123.183998108,14,-8,A,America/Vancouver,airport,OurAirports
1,-122.873,42.3742,4101,Rogue Valley International Medford Airport,Medford,United States,MFR,KMFR,42.37419891357422,-122.87300109863281,1335,-8,A,America/Los_Angeles,airport,OurAirports
1,-122.813,38.509,6992,Charles M. Schulz Sonoma County Airport,Santa Rosa,United States,STS,KSTS,38.50899887,-122.8130035,128,-8,A,America/Los_Angeles,airport,OurAirports
1,-122.679,53.8894,172,Prince George Airport,Prince George,Canada,YXS,CYXS,53.8894004822,-122.679000854,2267,-8,A,America/Vancouver,airport,OurAirports
1,-122.598,45.5887,3720,Portland International Airport,Portland,United States,PDX,KPDX,45.58869934,-122.5979996,31,-8,A,America/Los_Angeles,airport,OurAirports
1,-122.538,48.7928,3777,Bellingham International Airport,Bellingham,United States,BLI,KBLI,48.79280090332031,-122.53800201416016,170,-8,A,America/Los_Angeles,airport,OurAirports
1,-122.375,37.619,3469,San Francisco International Airport,San Francisco,United States,SFO,KSFO,37.61899948120117,-122.375,13,-8,A,America/Los_Angeles,airport,OurAirports
1,-122.361,49.0253,175,Abbotsford Airport,Abbotsford,Canada,YXX,CYXX,49.025299072265625,-122.36100006103516,195,-8,A,America/Vancouver,airport,OurAirports
1,-122.309,47.449,3577,Seattle Tacoma International Airport,Seattle,United States,SEA,KSEA,47.449001,-122.308998,433,-8,A,America/Los_Angeles,airport,OurAirports
1,-122.293,40.509,4098,Redding Municipal Airport,Redding,United States,RDD,KRDD,40.50899887,-122.2929993,505,-8,A,America/Los_Angeles,airport,OurAirports
1,-122.221,37.7213,3453,Metropolitan Oakland International Airport,Oakland,United States,OAK,KOAK,37.721298,-122.221001,9,-8,A,America/Los_Angeles,airport,OurAirports
1,-121.929,37.3626,3748,Norman Y. Mineta San Jose International Airport,San Jose,United States,SJC,KSJC,37.362598,-121.929001,62,-8,A,America/Los_Angeles,airport,OurAirports
1,-121.858,39.7954,3710,Chico Municipal Airport,Chico,United States,CIC,KCIC,39.79539871,-121.8580017,240,-8,A,America/Los_Angeles,airport,OurAirports
1,-121.843,36.587,3948,Monterey Peninsula Airport,Monterey,United States,MRY,KMRY,36.58700180053711,-121.84300231933594,257,-8,A,America/Los_Angeles,airport,OurAirports
1,-121.733,42.1561,5750,Crater Lake-Klamath Regional Airport,Klamath Falls,United States,LMT,KLMT,42.156101,-121.733002,4095,-8,A,America/Los_Angeles,airport,OurAirports
1,-121.591,38.6954,3817,Sacramento International Airport,Sacramento,United States,SMF,KSMF,38.69540023803711,-121.59100341796875,27,-8,A,America/Los_Angeles,airport,OurAirports
1,-121.15,44.2541,4103,Roberts Field,Redmond-Bend,United States,RDM,KRDM,44.2541008,-121.1500015,3080,-8,A,America/Los_Angeles,airport,OurAirports
1,-120.954,37.6258,3816,Modesto City Co-Harry Sham Field,Modesto,United States,MOD,KMOD,37.62580109,-120.9540024,97,-8,A,America/Los_Angeles,airport,OurAirports
1,-120.642,35.2368,5768,San Luis County Regional Airport,San Luis Obispo,United States,SBP,KSBP,35.236801147499996,-120.641998291,212,-8,A,America/Los_Angeles,airport,OurAirports
1,-120.544,46.5682,5779,Yakima Air Terminal McAllister Field,Yakima,United States,YKM,KYKM,46.56819916,-120.5439987,1099,-8,A,America/Los_Angeles,airport,OurAirports
1,-120.514,37.2847,7122,Merced Regional Macready Field,Merced,United States,MCE,KMCE,37.28469849,-120.5139999,155,-8,A,America/Los_Angeles,airport,OurAirports
1,-120.457,34.8989,5772,Santa Maria Pub/Capt G Allan Hancock Field,Santa Maria,United States,SMX,KSMX,34.89889908,-120.4570007,261,-8,A,America/Los_Angeles,airport,OurAirports
1,-120.444,50.7022,78,Kamloops Airport,Kamloops,Canada,YKA,CYKA,50.7022018433,-120.444000244,1133,-8,A,America/Vancouver,airport,OurAirports
1,-120.207,47.3989,6916,Pangborn Memorial Airport,Wenatchee,United States,EAT,KEAT,47.3988990784,-120.207000732,1249,-8,A,America/Los_Angeles,airport,OurAirports
1,-119.84,34.4262,3949,Santa Barbara Municipal Airport,Santa Barbara,United States,SBA,KSBA,34.42620087,-119.8399963,13,-8,A,America/Los_Angeles,airport,OurAirports
1,-119.768,39.4991,3807,Reno Tahoe International Airport,Reno,United States,RNO,KRNO,39.49909973144531,-119.76799774169922,4415,-8,A,America/Los_Angeles,airport,OurAirports
1,-119.718,36.7762,3687,Fresno Yosemite International Airport,Fresno,United States,FAT,KFAT,36.77619934082031,-119.71800231933594,336,-8,A,America/Los_Angeles,airport,OurAirports
1,-119.393,36.3187,7121,Visalia Municipal Airport,Visalia,United States,VIS,KVIS,36.3186988831,-119.392997742,295,-8,A,America/Los_Angeles,airport,OurAirports
1,-119.378,49.9561,87,Kelowna International Airport,Kelowna,Canada,YLW,CYLW,49.9561004639,-119.377998352,1421,-8,A,America/Vancouver,airport,OurAirports
1,-119.119,46.2647,6133,Tri Cities Airport,Pasco,United States,PSC,KPSC,46.26470184326172,-119.11900329589844,410,-8,A,America/Los_Angeles,airport,OurAirports
1,-119.057,35.4336,3558,Meadows Field,Bakersfield,United States,BFL,KBFL,35.43360138,-119.0569992,510,-8,A,America/Los_Angeles,airport,OurAirports
1,-118.885,55.1797,122,Grande Prairie Airport,Grande Prairie,Canada,YQU,CYQU,55.1796989441,-118.885002136,2195,-7,A,America/Edmonton,airport,OurAirports
1,-118.838,37.6241,7081,Mammoth Yosemite Airport,Mammoth Lakes,United States,MMH,KMMH,37.62409973,-118.8379974,7135,-8,A,America/Los_Angeles,airport,OurAirports
1,-118.408,33.9425,3484,Los Angeles International Airport,Los Angeles,United States,LAX,KLAX,33.94250107,-118.4079971,125,-8,A,America/Los_Angeles,airport,OurAirports
1,-118.359,34.2007,3644,Bob Hope Airport,Burbank,United States,BUR,KBUR,34.20069885253906,-118.35900115966797,778,-8,A,America/Los_Angeles,airport,OurAirports
1,-118.288,46.0949,5719,Walla Walla Regional Airport,Walla Walla,United States,ALW,KALW,46.09489822,-118.288002,1194,-8,A,America/Los_Angeles,airport,OurAirports
1,-118.152,33.8177,3582,Long Beach /Daugherty Field/ Airport,Long Beach,United States,LGB,KLGB,33.81769943,-118.1520004,60,-8,A,America/Los_Angeles,airport,OurAirports
1,-117.868,33.6757,3867,John Wayne Airport-Orange County Airport,Santa Ana,United States,SNA,KSNA,33.67570114,-117.8679962,56,-8,A,America/Los_Angeles,airport,OurAirports
1,-117.601,34.056,3734,Ontario International Airport,Ontario,United States,ONT,KONT,34.055999755859375,-117.60099792480469,944,-8,A,America/Los_Angeles,airport,OurAirports
1,-117.534,47.6199,3467,Spokane International Airport,Spokane,United States,GEG,KGEG,47.61989974975586,-117.53399658203125,2376,-8,A,America/Los_Angeles,airport,OurAirports
1,-117.28,33.1283,4088,Mc Clellan-Palomar Airport,Carlsbad,United States,CLD,KCRQ,33.12829971,-117.2799988,331,-8,A,America/Los_Angeles,airport,OurAirports
1,-117.19,32.7336,3731,San Diego International Airport,San Diego,United States,SAN,KSAN,32.7336006165,-117.190002441,17,-8,A,America/Los_Angeles,airport,OurAirports
1,-117.11,46.7439,3944,Pullman Moscow Regional Airport,Pullman,United States,PUW,KPUW,46.7439,-117.110001,2556,-8,A,America/Los_Angeles,airport,OurAirports
1,-117.015,46.3745,3945,Lewiston Nez Perce County Airport,Lewiston,United States,LWS,KLWS,46.3745002746582,-117.01499938964844,1442,-8,A,America/Los_Angeles,airport,OurAirports
1,-116.97,32.5411,1847,General Abelardo L. Rodríguez International Airport,Tijuana,Mexico,TIJ,MMTJ,32.541099548339844,-116.97000122070312,489,-8,S,America/Tijuana,airport,OurAirports
1,-116.507,33.8297,3839,Palm Springs International Airport,Palm Springs,United States,PSP,KPSP,33.8297004699707,-116.50700378417969,477,-8,A,America/Los_Angeles,airport,OurAirports
1,-116.223,43.5644,3495,Boise Air Terminal/Gowen Field,Boise,United States,BOI,KBOI,43.5644,-116.223,2871,-7,A,America/Denver,airport,OurAirports
1,-115.792,40.8249,5736,Elko Regional Airport,Elko,United States,EKO,KEKO,40.82490158081055,-115.79199981689453,5140,-8,A,America/Los_Angeles,airport,OurAirports
1,-115.152,36.0801,3877,McCarran International Airport,Las Vegas,United States,LAS,KLAS,36.08010101,-115.1520004,2181,-8,A,America/Los_Angeles,airport,OurAirports
1,-114.606,32.6566,3596,Yuma MCAS/Yuma International Airport,Yuma,United States,YUM,KNYL,32.65660095,-114.6060028,213,-7,N,America/Phoenix,airport,OurAirports
1,-114.488,42.4818,4263,Joslin Field Magic Valley Regional Airport,Twin Falls,United States,TWF,KTWF,42.4818,-114.487999,4154,-7,A,America/Denver,airport,OurAirports
1,-114.44,62.4628,196,Yellowknife Airport,Yellowknife,Canada,YZF,CYZF,62.462799072265625,-114.44000244140625,675,-7,A,America/Edmonton,airport,OurAirports
1,-114.296,43.5044,6494,Friedman Memorial Airport,Hailey,United States,SUN,KSUN,43.50439835,-114.2959976,5318,-7,A,America/Denver,airport,OurAirports
1,-114.256,48.3105,4127,Glacier Park International Airport,Kalispell,United States,FCA,KGPI,48.31050109863281,-114.25599670410156,2977,-7,A,America/Denver,airport,OurAirports
1,-114.091,46.9163,4216,Missoula International Airport,Missoula,United States,MSO,KMSO,46.91630173,-114.0910034,3206,-7,A,America/Denver,airport,OurAirports
1,-114.02,51.1139,178,Calgary International Airport,Calgary,Canada,YYC,CYYC,51.113899231,-114.019996643,3557,-7,A,America/Edmonton,airport,OurAirports
1,-113.938,35.2595,NA,NA,NA,NA,NA,NA,NA,NA,NA,NA,NA,NA,NA,NA
1,-113.58,53.3097,49,Edmonton International Airport,Edmonton,Canada,YEG,CYEG,53.309700012200004,-113.580001831,2373,-7,A,America/Edmonton,airport,OurAirports
1,-113.5257,31.3562,NA,NA,NA,NA,NA,NA,NA,NA,NA,NA,NA,NA,NA,NA
1,-113.5103,37.0364,4064,St George Municipal Airport,Saint George,United States,SGU,KSGU,37.036389,-113.510306,2941,-7,A,America/Denver,airport,OurAirports
1,-113.099,37.701,3824,Cedar City Regional Airport,Cedar City,United States,CDC,KCDC,37.70100021362305,-113.0989990234375,5622,-7,A,America/Denver,airport,OurAirports
1,-112.596,42.9098,5760,Pocatello Regional Airport,Pocatello,United States,PIH,KPIH,42.9098014831543,-112.59600067138672,4452,-7,A,America/Denver,airport,OurAirports
1,-112.497,45.9548,4022,Bert Mooney Airport,Butte,United States,BTM,KBTM,45.95479965209961,-112.49700164794922,5550,-7,A,America/Denver,airport,OurAirports
1,-112.42,34.6545,3446,Ernest A. Love Field,Prescott,United States,PRC,KPRC,34.65449905,-112.4199982,5045,-7,A,America/Phoenix,airport,OurAirports
1,-112.071,43.5146,4100,Idaho Falls Regional Airport,Idaho Falls,United States,IDA,KIDA,43.514599,-112.070999,4744,-7,A,America/Denver,airport,OurAirports
1,-112.012,33.4343,3462,Phoenix Sky Harbor International Airport,Phoenix,United States,PHX,KPHX,33.43429946899414,-112.01200103759766,1135,-7,N,America/Phoenix,airport,OurAirports
1,-111.983,46.6068,3504,Helena Regional Airport,Helena,United States,HLN,KHLN,46.6068000793457,-111.98300170898438,3877,-7,A,America/Denver,airport,OurAirports
1,-111.978,40.7884,3536,Salt Lake City International Airport,Salt Lake City,United States,SLC,KSLC,40.78839874267578,-111.97799682617188,4227,-7,A,America/Denver,airport,OurAirports
1,-111.671,35.1385,4261,Flagstaff Pulliam Airport,Flagstaff,United States,FLG,KFLG,35.13850021,-111.6709976,7014,-7,N,America/Phoenix,airport,OurAirports
1,-111.655,33.3078,6505,Phoenix-Mesa-Gateway Airport,Mesa,United States,AZA,KIWA,33.30780029,-111.6549988,1382,-7,N,America/Phoenix,airport,OurAirports
1,-111.448,36.9261,4124,Page Municipal Airport,Page,United States,PGA,KPGA,36.92610168,-111.447998,4316,-7,A,America/Phoenix,airport,OurAirports
1,-111.371,47.482,3880,Great Falls International Airport,Great Falls,United States,GTF,KGTF,47.48199844,-111.3710022,3680,-7,A,America/Denver,airport,OurAirports
1,-111.348,25.9892,1817,Loreto International Airport,Loreto,Mexico,LTO,MMLT,25.989200592041016,-111.3479995727539,34,-7,S,America/Mazatlan,airport,OurAirports
1,-111.222,56.6533,90,Fort McMurray Airport,Fort Mcmurray,Canada,YMM,CYMM,56.653301239,-111.222000122,1211,-7,A,America/Edmonton,airport,OurAirports
1,-111.153,45.7775,4020,Gallatin Field,Bozeman,United States,BZN,KBZN,45.77750015,-111.1529999,4473,-7,A,America/Denver,airport,OurAirports
1,-111.118,44.6884,7072,Yellowstone Airport,West Yellowstone,United States,WYS,KWYS,44.68840027,-111.1179962,6649,-7,A,America/Denver,airport,OurAirports
1,-111.048,29.0959,1807,General Ignacio P. Garcia International Airport,Hermosillo,Mexico,HMO,MMHO,29.095899581900003,-111.047996521,627,-7,S,America/Hermosillo,airport,OurAirports
1,-110.941,32.1161,3636,Tucson International Airport,Tucson,United States,TUS,KTUS,32.1161003112793,-110.94100189208984,2643,-7,N,America/Phoenix,airport,OurAirports
1,-110.738,43.6073,4027,Jackson Hole Airport,Jacksn Hole,United States,JAC,KJAC,43.6072998046875,-110.73799896240234,6451,-7,A,America/Denver,airport,OurAirports
1,-110.362,24.0727,1816,Manuel Márquez de León International Airport,La Paz,Mexico,LAP,MMLP,24.072700500499998,-110.361999512,69,-7,S,America/Mazatlan,airport,OurAirports
1,-109.755,38.755,7074,Canyonlands Field,Moab,United States,CNY,KCNY,38.75500107,-109.7549973,4557,-7,A,America/Denver,airport,OurAirports
1,-109.721,23.1518,1840,Los Cabos International Airport,San Jose Del Cabo,Mexico,SJD,MMSD,23.15180015563965,-109.72100067138672,374,-7,S,America/Mazatlan,airport,OurAirports
1,-109.51,40.4409,7076,Vernal Regional Airport,Vernal,United States,VEL,KVEL,40.4408989,-109.5100021,5278,-7,A,America/Denver,airport,OurAirports
1,-109.065,41.5942,5766,Southwest Wyoming Regional Airport,Rock Springs,United States,RKS,KRKS,41.5942,-109.065001,6764,-7,A,America/Denver,airport,OurAirports
1,-109.024,44.5202,4344,Yellowstone Regional Airport,Cody,United States,COD,KCOD,44.520198822,-109.024002075,5102,-7,A,America/Denver,airport,OurAirports
1,-108.628,37.303,4338,Cortez Municipal Airport,Cortez,United States,CEZ,KCEZ,37.3030014038,-108.627998352,5918,-7,A,America/Denver,airport,OurAirports
1,-108.543,45.8077,4021,Billings Logan International Airport,Billings,United States,BIL,KBIL,45.807701110839844,-108.54299926757812,3652,-7,A,America/Denver,airport,OurAirports
1,-108.527,39.1224,4063,Grand Junction Regional Airport,Grand Junction,United States,GJT,KGJT,39.1223983765,-108.527000427,4858,-7,A,America/Denver,airport,OurAirports
1,-108.46,43.0642,6881,Riverton Regional Airport,Riverton WY,United States,RIW,KRIW,43.064201355,-108.459999084,5525,-7,A,America/Denver,airport,OurAirports
1,-108.23,36.7412,3743,Four Corners Regional Airport,Farmington,United States,FMN,KFMN,36.741199493399996,-108.230003357,5506,-7,A,America/Denver,airport,OurAirports
1,-107.908,37.9538,4084,Telluride Regional Airport,Telluride,United States,TEX,KTEX,37.9538002,-107.9079971,9070,-7,A,America/Denver,airport,OurAirports
1,-107.894,38.5098,6880,Montrose Regional Airport,Montrose CO,United States,MTJ,KMTJ,38.509799957300004,-107.893997192,5759,-7,A,America/Denver,airport,OurAirports
1,-107.754,37.1515,3713,Durango La Plata County Airport,Durango,United States,DRO,KDRO,37.1515007019,-107.753997803,6685,-7,A,America/Denver,airport,OurAirports
1,-107.475,24.7645,1792,Bachigualato Federal International Airport,Culiacan,Mexico,CUL,MMCL,24.7644996643,-107.474998474,108,-7,S,America/Mazatlan,airport,OurAirports
1,-107.218,40.4812,4339,Yampa Valley Airport,Hayden,United States,HDN,KHDN,40.48120117,-107.2180023,6606,-7,A,America/Denver,airport,OurAirports
1,-106.98,44.7692,5769,Sheridan County Airport,Sheridan,United States,SHR,KSHR,44.76919937133789,-106.9800033569336,4021,-7,A,America/Denver,airport,OurAirports
1,-106.933,38.5339,7051,Gunnison Crested Butte Regional Airport,Gunnison,United States,GUC,KGUC,38.53390121,-106.9329987,7680,-7,A,America/Denver,airport,OurAirports
1,-106.918,39.6426,4250,Eagle County Regional Airport,Vail,United States,EGE,KEGE,39.64260101,-106.9179993,6548,-7,A,America/Denver,airport,OurAirports
1,-106.869,39.2232,7001,Aspen-Pitkin Co/Sardy Field,Aspen,United States,ASE,KASE,39.22320175,-106.8690033,7820,-7,A,America/Denver,airport,OurAirports
1,-106.7,52.1708,166,Saskatoon John G. Diefenbaker International Airport,Saskatoon,Canada,YXE,CYXE,52.170799255371094,-106.69999694824219,1653,-6,N,America/Regina,airport,OurAirports
1,-106.609,35.0402,4019,Albuquerque International Sunport,Albuquerque,United States,ABQ,KABQ,35.040199,-106.609001,5355,-7,A,America/Denver,airport,OurAirports
1,-106.464,42.908,3872,Casper-Natrona County International Airport,Casper,United States,CPR,KCPR,42.908001,-106.463997,5350,-7,A,America/Denver,airport,OurAirports
1,-106.429,31.6361,1796,Abraham González International Airport,Ciudad Juarez,Mexico,CJS,MMCS,31.63610076904297,-106.42900085449219,3904,-7,S,America/Mazatlan,airport,OurAirports
1,-106.378,31.8072,3559,El Paso International Airport,El Paso,United States,ELP,KELP,31.80719948,-106.3779984,3959,-7,A,America/Denver,airport,OurAirports
1,-106.266,23.1614,1826,General Rafael Buelna International Airport,Mazatlan,Mexico,MZT,MMMZ,23.1613998413,-106.26599884,38,-7,S,America/Mazatlan,airport,OurAirports
1,-106.089,35.6171,3784,Santa Fe Municipal Airport,Santa Fe,United States,SAF,KSAF,35.617099762,-106.088996887,6348,-7,A,America/Denver,airport,OurAirports
1,-105.965,28.7029,1797,General Roberto Fierro Villalobos International Airport,Chihuahua,Mexico,CUU,MMCU,28.702899932900003,-105.964996338,4462,-7,S,America/Mazatlan,airport,OurAirports
1,-105.867,37.4349,7073,San Luis Valley Regional Bergman Field,Alamosa,United States,ALS,KALS,37.434898,-105.866997,7539,-7,A,America/Denver,airport,OurAirports
1,-105.675,41.3121,5746,Laramie Regional Airport,Laramie,United States,LAR,KLAR,41.31209945678711,-105.67500305175781,7284,-7,A,America/Denver,airport,OurAirports
1,-105.539,44.3489,4296,Gillette Campbell County Airport,Gillette,United States,GCC,KGCC,44.348899841299996,-105.539001465,4365,-7,A,America/Denver,airport,OurAirports
1,-105.254,20.6801,1836,Licenciado Gustavo Díaz Ordaz International Airport,Puerto Vallarta,Mexico,PVR,MMPR,20.680099487304688,-105.25399780273438,23,-6,S,America/Mexico_City,airport,OurAirports
1,-104.812,41.1557,3804,Cheyenne Regional Jerry Olson Field,Cheyenne,United States,CYS,KCYS,41.15570068,-104.8119965,6159,-7,A,America/Denver,airport,OurAirports
1,-104.701,38.8058,3819,City of Colorado Springs Municipal Airport,Colorado Springs,United States,COS,KCOS,38.805801,-104.700996,6187,-7,A,America/Denver,airport,OurAirports
1,-104.673,39.8617,3751,Denver International Airport,Denver,United States,DEN,KDEN,39.861698150635,-104.672996521,5431,-7,A,America/Denver,airport,OurAirports
1,-104.666,50.4319,120,Regina International Airport,Regina,Canada,YQR,CYQR,50.43190002441406,-104.66600036621094,1894,-6,N,America/Regina,airport,OurAirports
1,-104.559,19.1448,1858,Playa De Oro International Airport,Manzanillo,Mexico,ZLO,MMZO,19.144800186199998,-104.558998108,30,-6,S,America/Mexico_City,airport,OurAirports
1,-104.528,24.1242,1801,General Guadalupe Victoria International Airport,Durango,Mexico,DGO,MMDO,24.1242008209,-104.527999878,6104,-6,S,America/Mexico_City,airport,OurAirports
1,-104.497,38.2891,3527,Pueblo Memorial Airport,Pueblo,United States,PUB,KPUB,38.289100646972656,-104.49700164794922,4726,-7,A,America/Denver,airport,OurAirports
1,-104.193,47.7069,7065,Sidney - Richland Regional Airport,Sidney,United States,SDY,KSDY,47.706902,-104.193001,1985,-7,A,America/Denver,airport,OurAirports
1,-103.642,48.1779,3659,Sloulin Field International Airport,Williston,United States,ISN,KISN,48.177898407,-103.641998291,1982,-6,A,America/Chicago,airport,OurAirports
1,-103.596,41.874,5723,Western Neb. Rgnl/William B. Heilig Airport,Scottsbluff,United States,BFF,KBFF,41.87400055,-103.5960007,3967,-7,A,America/Denver,airport,OurAirports
1,-103.411,25.5683,1845,Francisco Sarabia International Airport,Torreon,Mexico,TRC,MMTC,25.568300247199996,-103.411003113,3688,-6,S,America/Mexico_City,airport,OurAirports
1,-103.311,20.5218,1804,Don Miguel Hidalgo Y Costilla International Airport,Guadalajara,Mexico,GDL,MMGL,20.521799087524414,-103.31099700927734,5016,-6,S,America/Mexico_City,airport,OurAirports
1,-103.217,32.6875,3749,Lea County Regional Airport,Hobbs,United States,HOB,KHOB,32.6875,-103.2170029,3661,-7,A,America/Denver,airport,OurAirports
1,-103.057,44.0453,4087,Rapid City Regional Airport,Rapid City,United States,RAP,KRAP,44.0452995300293,-103.05699920654297,3204,-7,A,America/Denver,airport,OurAirports
1,-102.802,46.7974,7064,Dickinson Theodore Roosevelt Regional Airport,Dickinson,United States,DIK,KDIK,46.7974014282,-102.802001953,2592,-7,A,America/Denver,airport,OurAirports
1,-102.687,22.8971,1855,General Leobardo C. Ruiz International Airport,Zacatecas,Mexico,ZCL,MMZC,22.8971004486,-102.68699646,7141,-6,S,America/Mexico_City,airport,OurAirports
1,-102.318,21.7056,1785,Jesús Terán Paredo International Airport,Aguascalientes,Mexico,AGU,MMAS,21.705601,-102.318001,6112,-6,S,America/Mexico_City,airport,OurAirports
1,-102.202,31.9425,3652,Midland International Airport,Midland,United States,MAF,KMAF,31.9424991607666,-102.2020034790039,2871,-6,A,America/Chicago,airport,OurAirports
1,-101.823,33.6636,3829,Lubbock Preston Smith International Airport,Lubbock,United States,LBB,KLBB,33.663601,-101.822998,3282,-6,A,America/Chicago,airport,OurAirports
1,-101.706,35.2194,3840,Rick Husband Amarillo International Airport,Amarillo,United States,AMA,KAMA,35.219398,-101.706001,3607,-6,A,America/Chicago,airport,OurAirports
1,-101.481,20.9935,1815,Del Bajío International Airport,Del Bajio,Mexico,BJX,MMLO,20.9935,-101.481003,5956,-6,S,America/Mexico_City,airport,OurAirports
1,-101.461,17.6016,1856,Ixtapa Zihuatanejo International Airport,Zihuatanejo,Mexico,ZIH,MMZH,17.601600647,-101.460998535,26,-6,S,America/Mexico_City,airport,OurAirports
1,-101.28,48.2594,3498,Minot International Airport,Minot,United States,MOT,KMOT,48.2593994140625,-101.27999877929688,1716,-6,A,America/Chicago,airport,OurAirports
1,-101.025,19.8499,1821,General Francisco J. Mujica International Airport,Morelia,Mexico,MLM,MMMM,19.849899292,-101.025001526,6033,-6,S,America/Mexico_City,airport,OurAirports
1,-100.96,37.0442,4341,Liberal Mid-America Regional Airport,Liberal,United States,LBL,KLBL,37.0442009,-100.9599991,2885,-6,A,America/Chicago,airport,OurAirports
1,-100.931,22.2543,1842,Ponciano Arriaga International Airport,San Luis Potosi,Mexico,SLP,MMSP,22.254299163800003,-100.930999756,6035,-6,S,America/Mexico_City,airport,OurAirports
1,-100.746,46.7727,4083,Bismarck Municipal Airport,Bismarck,United States,BIS,KBIS,46.772701263427734,-100.74600219726562,1661,-6,A,America/Chicago,airport,OurAirports
1,-100.684,41.1262,5748,North Platte Regional Airport Lee Bird Field,North Platte,United States,LBF,KLBF,41.12620163,-100.6839981,2777,-6,A,America/Chicago,airport,OurAirports
1,-100.286,44.3827,5761,Pierre Regional Airport,Pierre,United States,PIR,KPIR,44.38270187,-100.2860031,1744,-6,A,America/Chicago,airport,OurAirports
1,-100.186,20.6173,1838,Querétaro Intercontinental Airport,Queretaro,Mexico,QRO,MMQT,20.6173,-100.185997,6296,-6,S,America/Mexico_City,airport,OurAirports
1,-100.107,25.7785,1825,General Mariano Escobedo International Airport,Monterrey,Mexico,MTY,MMMY,25.7784996033,-100.107002258,1278,-6,S,America/Mexico_City,airport,OurAirports
1,-99.9656,37.7634,5733,Dodge City Regional Airport,Dodge City,United States,DDC,KDDC,37.76340103149414,-99.9655990600586,2594,-6,A,America/Chicago,airport,OurAirports
1,-99.754,16.7571,1783,General Juan N Alvarez International Airport,Acapulco,Mexico,ACA,MMAA,16.757099151611328,-99.753997802734375,16,-6,S,America/Mexico_City,airport,OurAirports
1,-99.6819,32.4113,3718,Abilene Regional Airport,Abilene,United States,ABI,KABI,32.4113006592,-99.68190002440001,1791,-6,A,America/Chicago,airport,OurAirports
1,-99.566,19.3371,1850,Licenciado Adolfo Lopez Mateos International Airport,Toluca,Mexico,TLC,MMTO,19.3370990753,-99.56600189210002,8466,-6,S,America/Mexico_City,airport,OurAirports
1,-99.4616,27.5438,3691,Laredo International Airport,Laredo,United States,LRD,KLRD,27.543800354003906,-99.46160125732422,508,-6,A,America/Chicago,airport,OurAirports
1,-99.2732,38.8422,7014,Hays Regional Airport,Hays,United States,HYS,KHYS,38.84220123,-99.27320099,1999,-6,A,America/Chicago,airport,OurAirports
1,-99.0721,19.4363,1824,Licenciado Benito Juarez International Airport,Mexico City,Mexico,MEX,MMMX,19.4363,-99.072098,7316,-6,S,America/Mexico_City,airport,OurAirports
1,-99.0068,40.727,NA,NA,NA,NA,NA,NA,NA,NA,NA,NA,NA,NA,NA,NA
1,-98.4698,29.5337,3621,San Antonio International Airport,San Antonio,United States,SAT,KSAT,29.533700942993164,-98.46980285644531,809,-6,A,America/Chicago,airport,OurAirports
1,-98.4218,45.4491,5714,Aberdeen Regional Airport,Aberdeen,United States,ABR,KABR,45.449100494384766,-98.42179870605469,1302,-6,A,America/Chicago,airport,OurAirports
1,-98.3714,19.1581,1831,Hermanos Serdán International Airport,Puebla,Mexico,PBC,MMPB,19.1581001282,-98.3713989258,7361,-6,S,America/Mexico_City,airport,OurAirports
1,-98.2386,26.1758,3826,Mc Allen Miller International Airport,Mcallen,United States,MFE,KMFE,26.17580032,-98.23860168,107,-6,A,America/Chicago,airport,OurAirports
1,-98.2285,44.3852,3491,Huron Regional Airport,Huron,United States,HON,KHON,44.38520050048828,-98.22850036621094,1289,-6,A,America/Chicago,airport,OurAirports
1,-97.8659,22.2964,1848,General Francisco Javier Mina International Airport,Tampico,Mexico,TAM,MMTM,22.2964000702,-97.8658981323,80,-6,S,America/Mexico_City,airport,OurAirports
1,-97.8289,31.0672,3775,Robert Gray  Army Air Field Airport,Killeen,United States,GRK,KGRK,31.067199707,-97.82890319820001,1015,-6,A,America/Chicago,airport,OurAirports
1,-97.6699,30.1945,3673,Austin Bergstrom International Airport,Austin,United States,AUS,KAUS,30.194499969482422,-97.6698989868164,542,-6,A,America/Chicago,airport,OurAirports
1,-97.6544,26.2285,3560,Valley International Airport,Harlingen,United States,HRL,KHRL,26.228500366210938,-97.65440368652344,36,-6,A,America/Chicago,airport,OurAirports
1,-97.6007,35.3931,3863,Will Rogers World Airport,Oklahoma City,United States,OKC,KOKC,35.39310073852539,-97.60070037841797,1295,-6,A,America/Chicago,airport,OurAirports
1,-97.5012,27.7704,3744,Corpus Christi International Airport,Corpus Christi,United States,CRP,KCRP,27.77039909362793,-97.5011978149414,44,-6,A,America/Chicago,airport,OurAirports
1,-97.4331,37.6499,3457,Wichita Eisenhower National Airport,Wichita,United States,ICT,KICT,37.649899,-97.433098,1333,-6,A,America/Chicago,airport,OurAirports
1,-97.4259,25.9068,3738,Brownsville South Padre Island International Airport,Brownsville,United States,BRO,KBRO,25.90679931640625,-97.4259033203125,22,-6,A,America/Chicago,airport,OurAirports
1,-97.2399,49.91,160,Winnipeg / James Armstrong Richardson International Airport,Winnipeg,Canada,YWG,CYWG,49.909999847399995,-97.2398986816,783,-6,A,America/Winnipeg,airport,OurAirports
1,-97.2305,31.6113,3700,Waco Regional Airport,Waco,United States,ACT,KACT,31.611299514770508,-97.230499267578125,516,-6,A,America/Chicago,airport,OurAirports
1,-97.1761,47.9493,3442,Grand Forks International Airport,Grand Forks,United States,GFK,KGFK,47.949299,-97.176102,845,-6,A,America/Chicago,airport,OurAirports
1,-97.1547,44.914,5721,Watertown Regional Airport,Watertown,United States,ATY,KATY,44.91400146,-97.15470123,1749,-6,A,America/Chicago,airport,OurAirports
1,-97.038,32.8968,3670,Dallas Fort Worth International Airport,Dallas-Fort Worth,United States,DFW,KDFW,32.896801,-97.038002,607,-6,A,America/Chicago,airport,OurAirports
1,-96.9185,28.8526,5775,Victoria Regional Airport,Victoria,United States,VCT,KVCT,28.85260009765625,-96.91850280761719,115,-6,A,America/Chicago,airport,OurAirports
1,-96.8518,32.8471,3502,Dallas Love Field,Dallas,United States,DAL,KDAL,32.847099,-96.851799,487,-6,A,America/Chicago,airport,OurAirports
1,-96.8158,46.9207,4292,Hector International Airport,Fargo,United States,FAR,KFAR,46.92070007324219,-96.81580352783203,902,-6,A,America/Chicago,airport,OurAirports
1,-96.7592,40.851,3543,Lincoln Airport,Lincoln,United States,LNK,KLNK,40.85100173950195,-96.75920104980469,1219,-6,A,America/Chicago,airport,OurAirports
1,-96.7419,43.582,4009,Joe Foss Field Airport,Sioux Falls,United States,FSD,KFSD,43.582000732400004,-96.741897583,1429,-6,A,America/Chicago,airport,OurAirports
1,-96.7266,16.9999,1829,Xoxocotlán International Airport,Oaxaca,Mexico,OAX,MMOX,16.9999008179,-96.726600647,4989,-6,S,America/Mexico_City,airport,OurAirports
1,-96.6708,39.141,4050,Manhattan Regional Airport,Manhattan,United States,MHK,KMHK,39.14099884033203,-96.6707992553711,1057,-6,A,America/Chicago,airport,OurAirports
1,-96.3638,30.5886,3715,Easterwood Field,College Station,United States,CLL,KCLL,30.58860016,-96.36380005,320,-6,A,America/Chicago,airport,OurAirports
1,-96.2626,15.7753,1786,Bahías de Huatulco International Airport,Huatulco,Mexico,HUX,MMBT,15.7753,-96.262604,464,-6,S,America/Mexico_City,airport,OurAirports
1,-96.1873,19.1459,1854,General Heriberto Jara International Airport,Vera Cruz,Mexico,VER,MMVR,19.1459007263,-96.1873016357,90,-6,S,America/Mexico_City,airport,OurAirports
1,-95.8941,41.3032,3454,Eppley Airfield,Omaha,United States,OMA,KOMA,41.3032,-95.894096,984,-6,A,America/Chicago,airport,OurAirports
1,-95.8881,36.1984,3855,Tulsa International Airport,Tulsa,United States,TUL,KTUL,36.19839859008789,-95.88809967041016,677,-6,A,America/Chicago,airport,OurAirports
1,-95.6636,38.9509,3843,Topeka Regional Airport - Forbes Field,Topeka,United States,FOE,KFOE,38.950901031499995,-95.66359710690001,1078,-6,A,America/Chicago,airport,OurAirports
1,-95.4024,32.3541,3848,Tyler Pounds Regional Airport,Tyler,United States,TYR,KTYR,32.35409927368164,-95.40239715576172,544,-6,A,America/Chicago,airport,OurAirports
1,-95.3414,29.9844,3550,George Bush Intercontinental Houston Airport,Houston,United States,IAH,KIAH,29.984399795532227,-95.341400146484375,97,-6,A,America/Chicago,airport,OurAirports
1,-95.2789,29.6454,3566,William P Hobby Airport,Houston,United States,HOU,KHOU,29.64539909,-95.27890015,46,-6,A,America/Chicago,airport,OurAirports
1,-94.9337,47.5094,4287,Bemidji Regional Airport,Bemidji,United States,BJI,KBJI,47.50939941,-94.93370056,1391,-6,A,America/Chicago,airport,OurAirports
1,-94.7139,39.2976,3458,Kansas City International Airport,Kansas City,United States,MCI,KMCI,39.2976,-94.713898,1026,-6,A,America/Chicago,airport,OurAirports
1,-94.3674,35.3366,3437,Fort Smith Regional Airport,Fort Smith,United States,FSM,KFSM,35.33660125732422,-94.367401123046875,469,-6,A,America/Chicago,airport,OurAirports
1,-94.3068,36.2819,4356,Northwest Arkansas Regional Airport,Bentonville,United States,XNA,KXNA,36.281898,-94.306801,1287,-6,A,America/Chicago,airport,OurAirports
1,-94.1926,42.5515,3841,Fort Dodge Regional Airport,Fort Dodge,United States,FOD,KFOD,42.55149841,-94.19259644,1156,-6,A,America/Chicago,airport,OurAirports
1,-94.1381,46.3983,6957,Brainerd Lakes Regional Airport,Brainerd,United States,BRD,KBRD,46.39830017,-94.13809967,1232,-6,U,America/Chicago,airport,OurAirports
1,-94.0207,29.9508,3612,Southeast Texas Regional Airport,Beaumont,United States,BPT,KBPT,29.9507999420166,-94.02069854736328,15,-6,A,America/Chicago,airport,OurAirports
1,-93.8256,32.4466,3609,Shreveport Regional Airport,Shreveport,United States,SHV,KSHV,32.446602,-93.8256,258,-6,A,America/Chicago,airport,OurAirports
1,-93.6631,41.534,3729,Des Moines International Airport,Des Moines,United States,DSM,KDSM,41.534000396728516,-93.66310119628906,958,-6,A,America/Chicago,airport,OurAirports
1,-93.4031,48.5662,3535,Falls International Airport,International Falls,United States,INL,KINL,48.566200256347656,-93.4030990600586,1185,-6,A,America/Chicago,airport,OurAirports
1,-93.3886,37.2457,4348,Springfield Branson National Airport,Springfield,United States,SGF,KSGF,37.24570084,-93.38860321,1268,-6,A,America/Chicago,airport,OurAirports
1,-93.3313,43.1578,6500,Mason City Municipal Airport,Mason City,United States,MCW,KMCW,43.157798767100005,-93.3312988281,1213,-6,A,America/Chicago,airport,OurAirports
1,-93.2233,30.1261,3513,Lake Charles Regional Airport,Lake Charles,United States,LCH,KLCH,30.126100540161133,-93.223297119140625,15,-6,A,America/Chicago,airport,OurAirports
1,-93.2218,44.882,3858,Minneapolis-St Paul International/Wold-Chamberlain Airport,Minneapolis,United States,MSP,KMSP,44.882,-93.221802,841,-6,A,America/Chicago,airport,OurAirports
1,-93.2005,36.5321,6962,Branson Airport,Branson,United States,BKG,KBBG,36.532082,-93.200544,1302,-6,A,America/Chicago,airport,OurAirports
1,-93.0225,16.5636,1846,Angel Albino Corzo International Airport,Tuxtla Gutierrez,Mexico,TGZ,MMTG,16.5636005402,-93.02249908450001,1499,-6,S,America/Mexico_City,airport,OurAirports
1,-92.839,47.3866,3650,Range Regional Airport,Hibbing,United States,HIB,KHIB,47.38660049,-92.83899689,1354,-6,A,America/Chicago,airport,OurAirports
1,-92.8174,17.997,1853,Carlos Rovirosa Pérez International Airport,Villahermosa,Mexico,VSA,MMVA,17.996999740600586,-92.81739807128906,46,-6,S,America/Mexico_City,airport,OurAirports
1,-92.5498,31.3274,3852,Alexandria International Airport,Alexandria,United States,AEX,KAEX,31.32740020751953,-92.54979705810547,89,-6,A,America/Chicago,airport,OurAirports
1,-92.5,43.9083,4048,Rochester International Airport,Rochester,United States,RST,KRST,43.90829849243164,-92.5,1317,-6,A,America/Chicago,airport,OurAirports
1,-92.2243,34.7294,3660,Bill & Hillary Clinton National Airport/Adams Field,Little Rock,United States,LIT,KLIT,34.729400634799994,-92.2242965698,262,-6,A,America/Chicago,airport,OurAirports
1,-92.2196,38.8181,3719,Columbia Regional Airport,Columbia,United States,COU,KCOU,38.81809997558594,-92.21959686279297,889,-6,A,America/Chicago,airport,OurAirports
1,-92.1936,46.8421,3598,Duluth International Airport,Duluth,United States,DLH,KDLH,46.8420982361,-92.19360351559999,1428,-6,A,America/Chicago,airport,OurAirports
1,-92.1407,37.7416,3665,Waynesville-St. Robert Regional Forney field,Fort Leonardwood,United States,TBN,KTBN,37.74160004,-92.14070129,1159,-6,A,America/Chicago,airport,OurAirports
1,-92.0377,32.5109,3732,Monroe Regional Airport,Monroe,United States,MLU,KMLU,32.51089859008789,-92.0376968383789,79,-6,A,America/Chicago,airport,OurAirports
1,-91.9876,30.2053,3493,Lafayette Regional Airport,Lafayette,United States,LFT,KLFT,30.20529938,-91.98760223,42,-6,A,America/Chicago,airport,OurAirports
1,-91.7108,41.8847,4043,The Eastern Iowa Airport,Cedar Rapids,United States,CID,KCID,41.884700775146484,-91.71080017089844,869,-6,A,America/Chicago,airport,OurAirports
1,-91.4843,44.8658,5735,Chippewa Valley Regional Airport,Eau Claire,United States,EAU,KEAU,44.86579895019531,-91.48429870605469,913,-6,A,America/Chicago,airport,OurAirports
1,-91.2567,43.879,4044,La Crosse Municipal Airport,La Crosse,United States,LSE,KLSE,43.879002,-91.256699,655,-6,A,America/Chicago,airport,OurAirports
1,-91.1496,30.5332,3846,Baton Rouge Metropolitan Airport,Baton Rouge,United States,BTR,KBTR,30.533199,-91.149597,70,-6,A,America/Chicago,airport,OurAirports
1,-90.9856,33.4829,6130,Mid Delta Regional Airport,Greenville,United States,GLH,KGLH,33.4828987121582,-90.98560333251953,131,-6,A,America/Chicago,airport,OurAirports
1,-90.5275,14.5833,1767,La Aurora Airport,Guatemala City,Guatemala,GUA,MGGT,14.5833,-90.527496,4952,-6,U,America/Guatemala,airport,OurAirports
1,-90.5075,41.4485,4072,Quad City International Airport,Moline,United States,MLI,KMLI,41.44850158691406,-90.50749969482422,590,-6,A,America/Chicago,airport,OurAirports
1,-90.37,38.7487,3678,St Louis Lambert International Airport,St. Louis,United States,STL,KSTL,38.748697,-90.370003,618,-6,A,America/Chicago,airport,OurAirports
1,-90.2659,-0.4538,2672,Seymour Airport,Galapagos,Ecuador,GPS,SEGS,-0.45375800132751465,-90.265899658203125,207,-6,U,Pacific/Galapagos,airport,OurAirports
1,-90.258,29.9934,3861,Louis Armstrong New Orleans International Airport,New Orleans,United States,MSY,KMSY,29.99340057373047,-90.25800323486328,4,-6,A,America/Chicago,airport,OurAirports
1,-90.0759,32.3112,3580,Jackson-Medgar Wiley Evers International Airport,Jackson,United States,JAN,KJAN,32.3111991882,-90.0758972168,346,-6,A,America/Chicago,airport,OurAirports
1,-89.9767,35.0424,3473,Memphis International Airport,Memphis,United States,MEM,KMEM,35.04240036010742,-89.97669982910156,341,-6,A,America/Chicago,airport,OurAirports
1,-89.6933,40.6642,4046,General Wayne A. Downing Peoria International Airport,Peoria,United States,PIA,KPIA,40.664199829100006,-89.6932983398,660,-6,A,America/Chicago,airport,OurAirports
1,-89.6779,39.8441,4336,Abraham Lincoln Capital Airport,Springfield,United States,SPI,KSPI,39.84410095,-89.677902219999993,598,-6,A,America/Chicago,airport,OurAirports
1,-89.6668,44.7776,4045,Central Wisconsin Airport,Wassau,United States,CWA,KCWA,44.7775993347,-89.6668014526,1277,-6,A,America/Chicago,airport,OurAirports
1,-89.6577,20.937,1819,Licenciado Manuel Crescencio Rejon Int Airport,Merida,Mexico,MID,MMMD,20.937000274699997,-89.657699585,38,-6,S,America/Mexico_City,airport,OurAirports
1,-89.4675,45.6312,5765,Rhinelander Oneida County Airport,Rhinelander,United States,RHI,KRHI,45.63119888305664,-89.467498779296875,1624,-6,A,America/Chicago,airport,OurAirports
1,-89.3375,43.1399,3459,Dane County Regional Truax Field,Madison,United States,MSN,KMSN,43.13990020751953,-89.3375015258789,887,-6,A,America/Chicago,airport,OurAirports
1,-89.3371,31.4671,5759,Hattiesburg Laurel Regional Airport,Hattiesburg/Laurel,United States,PIB,KPIB,31.467100143432617,-89.33709716796875,298,-6,A,America/Chicago,airport,OurAirports
1,-89.3239,48.3719,121,Thunder Bay Airport,Thunder Bay,Canada,YQT,CYQT,48.37189865112305,-89.32389831542969,653,-5,A,America/Toronto,airport,OurAirports
1,-89.0972,42.1954,4028,Chicago Rockford International Airport,Rockford,United States,RFD,KRFD,42.19540023803711,-89.097198486328125,742,-6,A,America/Chicago,airport,OurAirports
1,-89.0701,30.4073,4038,Gulfport Biloxi International Airport,Gulfport,United States,GPT,KGPT,30.40730094909668,-89.070098876953125,28,-6,A,America/Chicago,airport,OurAirports
1,-89.0557,13.4409,1892,Monseñor Óscar Arnulfo Romero International Airport,San Salvador,El Salvador,SAL,MSLP,13.4409,-89.055702,101,-6,U,America/El_Salvador,airport,OurAirports
1,-89.0111,37.755,6825,Williamson County Regional Airport,Marion,United States,MWA,KMWA,37.75500107,-89.01110077,472,-6,A,America/Chicago,airport,OurAirports
1,-88.9159,40.4771,4037,Central Illinois Regional Airport at Bloomington-Normal,Bloomington,United States,BMI,KBMI,40.47710037,-88.91590118,871,-6,A,America/Chicago,airport,OurAirports
1,-88.7738,37.0608,4117,Barkley Regional Airport,PADUCAH,United States,PAH,KPAH,37.06079864501953,-88.7738037109375,410,-6,A,America/Chicago,airport,OurAirports
1,-88.7699,34.2681,5773,Tupelo Regional Airport,Tupelo,United States,TUP,KTUP,34.26810073852539,-88.7698974609375,346,-6,A,America/Chicago,airport,OurAirports
1,-88.7519,32.3326,4335,Key Field,Meridian,United States,MEI,KMEI,32.33259963989258,-88.75189971923828,297,-6,A,America/Chicago,airport,OurAirports
1,-88.5914,33.4503,4273,Golden Triangle Regional Airport,Columbus Mississippi,United States,GTR,KGTR,33.450298309299995,-88.5914001465,264,-6,A,America/Chicago,airport,OurAirports
1,-88.5191,44.2581,4047,Appleton International Airport,Appleton,United States,ATW,KATW,44.258098602299995,-88.5190963745,918,-6,A,America/Chicago,airport,OurAirports
1,-88.4891,47.1684,5732,Houghton County Memorial Airport,Hancock,United States,CMX,KCMX,47.168399810791016,-88.48909759521484,1095,-5,A,America/New_York,airport,OurAirports
1,-88.3082,17.5391,1957,Philip S. W. Goldson International Airport,Belize City,Belize,BZE,MZBZ,17.539100646972656,-88.308197021484375,15,-6,U,America/Belize,airport,OurAirports
1,-88.2781,40.0392,4049,University of Illinois Willard Airport,Champaign,United States,CMI,KCMI,40.03919983,-88.27809906,755,-6,A,America/Chicago,airport,OurAirports
1,-88.2428,30.6912,3782,Mobile Regional Airport,Mobile,United States,MOB,KMOB,30.691200256348,-88.242797851562,219,-6,A,America/Chicago,airport,OurAirports
1,-88.1296,44.4851,3653,Austin Straubel International Airport,Green Bay,United States,GRB,KGRB,44.48509979248047,-88.12960052490234,695,-6,A,America/Chicago,airport,OurAirports
1,-88.1145,45.8184,6837,Ford Airport,Iron Mountain,United States,IMT,KIMT,45.8184013367,-88.1145019531,1182,-6,A,America/Chicago,airport,OurAirports
1,-87.9236,15.4526,1772,Ramón Villeda Morales International Airport,San Pedro Sula,Honduras,SAP,MHLM,15.4526,-87.923599,91,-6,U,America/Tegucigalpa,airport,OurAirports
1,-87.9048,41.9786,3830,Chicago O'Hare International Airport,Chicago,United States,ORD,KORD,41.9786,-87.9048,672,-6,A,America/Chicago,airport,OurAirports
1,-87.8966,42.9472,3717,General Mitchell International Airport,Milwaukee,United States,MKE,KMKE,42.947200775146484,-87.89659881591797,723,-6,A,America/Chicago,airport,OurAirports
1,-87.7524,41.786,3747,Chicago Midway International Airport,Chicago,United States,MDW,KMDW,41.785999,-87.752403,620,-6,A,America/Chicago,airport,OurAirports
1,-87.6102,34.7453,5756,Northwest Alabama Regional Airport,Muscle Shoals,United States,MSL,KMSL,34.74530029,-87.61019897,551,-6,A,America/Chicago,airport,OurAirports
1,-87.5324,38.037,4018,Evansville Regional Airport,Evansville,United States,EVV,KEVV,38.0369987488,-87.5324020386,418,-6,A,America/Chicago,airport,OurAirports
1,-87.3954,46.3536,3675,Sawyer International Airport,Gwinn,United States,MQT,KSAW,46.353599548300004,-87.395401001,1221,-5,A,America/New_York,airport,OurAirports
1,-87.2172,14.0609,1776,Toncontín International Airport,Tegucigalpa,Honduras,TGU,MHTG,14.06089973449707,-87.21720123291016,3294,-6,U,America/Tegucigalpa,airport,OurAirports
1,-87.1866,30.4734,3564,Pensacola Regional Airport,Pensacola,United States,PNS,KPNS,30.473400115967,-87.186599731445,121,-6,A,America/Chicago,airport,OurAirports
1,-87.1668,37.7401,5758,Owensboro Daviess County Airport,Owensboro,United States,OWB,KOWB,37.74010086,-87.16680145,407,-6,A,America/Chicago,airport,OurAirports
1,-87.0937,45.7227,6800,Delta County Airport,Escanaba,United States,ESC,KESC,45.7226982117,-87.0936965942,609,-5,A,America/New_York,airport,OurAirports
1,-86.9256,20.5224,1800,Cozumel International Airport,Cozumel,Mexico,CZM,MMCZ,20.52239990234375,-86.92559814453125,15,-5,S,America/Cancun,airport,OurAirports
1,-86.8771,21.0365,1852,Cancún International Airport,Cancun,Mexico,CUN,MMUN,21.036500930800003,-86.8770980835,22,-5,S,America/Cancun,airport,OurAirports
1,-86.7751,34.6372,4113,Huntsville International Carl T Jones Field,Huntsville,United States,HSV,KHSV,34.637199401855,-86.775100708008,629,-6,A,America/Chicago,airport,OurAirports
1,-86.7535,33.5629,3811,Birmingham-Shuttlesworth International Airport,Birmingham,United States,BHM,KBHM,33.56290054,-86.75350189,650,-6,A,America/Chicago,airport,OurAirports
1,-86.6782,36.1245,3690,Nashville International Airport,Nashville,United States,BNA,KBNA,36.1245002746582,-86.6781997680664,599,-6,A,America/Chicago,airport,OurAirports
1,-86.5254,30.4832,3873,Destin-Ft Walton Beach Airport,Valparaiso,United States,VPS,KVPS,30.4832,-86.525398,87,-6,A,America/Chicago,airport,OurAirports
1,-86.523,16.3168,1774,Juan Manuel Galvez International Airport,Roatan,Honduras,RTB,MHRO,16.316799,-86.523003,39,-6,U,America/Tegucigalpa,airport,OurAirports
1,-86.394,32.3006,4115,Montgomery Regional (Dannelly Field) Airport,MONTGOMERY,United States,MGM,KMGM,32.30059814,-86.39399719,221,-6,A,America/Chicago,airport,OurAirports
1,-86.3173,41.7087,4359,South Bend Regional Airport,South Bend,United States,SBN,KSBN,41.70869827270508,-86.31729888916016,799,-5,A,America/New_York,airport,OurAirports
1,-86.2944,39.7173,3585,Indianapolis International Airport,Indianapolis,United States,IND,KIND,39.7173,-86.294403,797,-5,A,America/New_York,airport,OurAirports
1,-86.2382,43.1695,5754,Muskegon County Airport,Muskegon,United States,MKG,KMKG,43.16949844,-86.23819733,629,-5,A,America/New_York,airport,OurAirports
1,-86.1682,12.1415,1863,Augusto C. Sandino (Managua) International Airport,Managua,Nicaragua,MGA,MNMG,12.141500473022461,-86.16819763183594,194,-6,U,America/Managua,airport,OurAirports
1,-85.7973,30.3417,NA,NA,NA,NA,NA,NA,NA,NA,NA,NA,NA,NA,NA,NA
1,-85.736,38.1744,4014,Louisville International Standiford Field,Louisville,United States,SDF,KSDF,38.1744,-85.736,501,-5,A,America/New_York,airport,OurAirports
1,-85.5822,44.7414,4023,Cherry Capital Airport,Traverse City,United States,TVC,KTVC,44.74140167236328,-85.58219909667969,624,-5,A,America/New_York,airport,OurAirports
1,-85.5521,42.2349,4039,Kalamazoo Battle Creek International Airport,Kalamazoo,United States,AZO,KAZO,42.234901428222656,-85.5521011352539,874,-5,A,America/New_York,airport,OurAirports
1,-85.5444,10.5933,1881,Daniel Oduber Quiros International Airport,Liberia,Costa Rica,LIR,MRLB,10.5933,-85.544403,270,-6,U,America/Costa_Rica,airport,OurAirports
1,-85.5228,42.8808,3685,Gerald R. Ford International Airport,Grand Rapids,United States,GRR,KGRR,42.88079834,-85.52279663,794,-5,A,America/New_York,airport,OurAirports
1,-85.4496,31.3213,3739,Dothan Regional Airport,Dothan,United States,DHN,KDHN,31.321300506591797,-85.44960021972656,401,-6,A,America/Chicago,airport,OurAirports
1,-85.2038,35.0353,3578,Lovell Field,Chattanooga,United States,CHA,KCHA,35.035301208496094,-85.20379638671875,683,-5,A,America/New_York,airport,OurAirports
1,-85.1951,40.9785,4041,Fort Wayne International Airport,Fort Wayne,United States,FWA,KFWA,40.97850037,-85.19509888,814,-5,A,America/New_York,airport,OurAirports
1,-84.9389,32.5163,4255,Columbus Metropolitan Airport,Columbus,United States,CSG,KCSG,32.516300201416016,-84.93890380859375,397,-5,A,America/New_York,airport,OurAirports
1,-84.7967,45.5709,5762,Pellston Regional Airport of Emmet County Airport,Pellston,United States,PLN,KPLN,45.57089996,-84.79669952,721,-5,A,America/New_York,airport,OurAirports
1,-84.6678,39.0488,3488,Cincinnati Northern Kentucky International Airport,Cincinnati,United States,CVG,KCVG,39.0488014221,-84.6678009033,896,-5,A,America/New_York,airport,OurAirports
1,-84.6059,38.0365,4017,Blue Grass Airport,Lexington KY,United States,LEX,KLEX,38.0364990234375,-84.60590362548828,979,-5,A,America/New_York,airport,OurAirports
1,-84.5874,42.7787,3544,Capital City Airport,Lansing,United States,LAN,KLAN,42.77870178222656,-84.58740234375,861,-5,A,America/New_York,airport,OurAirports
1,-84.4724,46.2508,5729,Chippewa County International Airport,Sault Ste Marie,United States,CIU,KCIU,46.25080108642578,-84.47239685058594,800,-5,A,America/New_York,airport,OurAirports
1,-84.4281,33.6367,3682,Hartsfield Jackson Atlanta International Airport,Atlanta,United States,ATL,KATL,33.6367,-84.428101,1026,-5,A,America/New_York,airport,OurAirports
1,-84.4186,39.1033,3681,Cincinnati Municipal Airport Lunken Field,Cincinnati,United States,LUK,KLUK,39.10329819,-84.41860199,483,-5,A,America/New_York,airport,OurAirports
1,-84.3503,30.3965,3698,Tallahassee Regional Airport,Tallahassee,United States,TLH,KTLH,30.396499633789062,-84.35030364990234,81,-5,A,America/New_York,airport,OurAirports
1,-84.2194,39.9024,3627,James M Cox Dayton International Airport,Dayton,United States,DAY,KDAY,39.902400970458984,-84.21939849853516,1009,-5,A,America/New_York,airport,OurAirports
1,-84.2088,9.9939,1885,Juan Santamaria International Airport,San Jose,Costa Rica,SJO,MROC,9.993860244750977,-84.20880126953125,3021,-6,U,America/Costa_Rica,airport,OurAirports
1,-84.1945,31.5355,5715,Southwest Georgia Regional Airport,Albany,United States,ABY,KABY,31.535499572753906,-84.19450378417969,197,-5,A,America/New_York,airport,OurAirports
1,-84.0796,43.5329,4128,MBS International Airport,Saginaw,United States,MBS,KMBS,43.532901763916016,-84.07959747314453,668,-5,A,America/New_York,airport,OurAirports
1,-83.994,35.811,3676,McGhee Tyson Airport,Knoxville,United States,TYS,KTYS,35.81100082,-83.9940033,981,-5,A,America/New_York,airport,OurAirports
1,-83.8078,41.5868,4040,Toledo Express Airport,Toledo,United States,TOL,KTOL,41.58679962,-83.80780029,683,-5,A,America/New_York,airport,OurAirports
1,-83.7436,42.9654,4089,Bishop International Airport,Flint,United States,FNT,KFNT,42.96540069580078,-83.74359893798828,782,-5,A,America/New_York,airport,OurAirports
1,-83.6492,32.6928,3754,Middle Georgia Regional Airport,Macon,United States,MCN,KMCN,32.69279861450195,-83.649200439453125,354,-5,A,America/New_York,airport,OurAirports
1,-83.5603,45.0781,5720,Alpena County Regional Airport,Alpena,United States,APN,KAPN,45.0780983,-83.56030273,690,-5,A,America/New_York,airport,OurAirports
1,-83.3534,42.2124,3645,Detroit Metropolitan Wayne County Airport,Detroit,United States,DTW,KDTW,42.212398529052734,-83.35340118408203,645,-5,A,America/New_York,airport,OurAirports
1,-83.2767,30.7825,5776,Valdosta Regional Airport,Valdosta,United States,VLD,KVLD,30.782499313354492,-83.276702880859375,203,-5,A,America/New_York,airport,OurAirports
1,-82.9556,42.2756,113,Windsor Airport,Windsor,Canada,YQG,CYQG,42.27560043334961,-82.955596923828125,622,-5,A,America/Toronto,airport,OurAirports
1,-82.8919,39.998,3759,John Glenn Columbus International Airport,Columbus,United States,CMH,KCMH,39.998001,-82.891899,815,-5,A,America/New_York,airport,OurAirports
1,-82.558,38.3667,5742,Tri-State/Milton J. Ferguson Field,Huntington,United States,HTS,KHTS,38.36669922,-82.55799866,828,-5,A,America/New_York,airport,OurAirports
1,-82.5544,27.3954,4067,Sarasota Bradenton International Airport,Sarasota,United States,SRQ,KSRQ,27.39539909362793,-82.55439758300781,30,-5,A,America/New_York,airport,OurAirports
1,-82.5418,35.4362,4007,Asheville Regional Airport,Asheville,United States,AVL,KAVL,35.43619918823242,-82.54180145263672,2165,-5,A,America/New_York,airport,OurAirports
1,-82.5332,27.9755,3646,Tampa International Airport,Tampa,United States,TPA,KTPA,27.975500106811523,-82.533203125,26,-5,A,America/New_York,airport,OurAirports
1,-82.4091,22.9892,1909,José Martí International Airport,Havana,Cuba,HAV,MUHA,22.989200592041016,-82.40910339355469,210,-5,U,America/Havana,airport,OurAirports
2,-82.4074,36.4752,4116,Tri-Cities Regional TN/VA Airport,BRISTOL,United States,TRI,KTRI,36.475201,-82.407401,1519,-5,A,America/New_York,airport,OurAirports
1,-82.2718,29.6901,3472,Gainesville Regional Airport,Gainesville,United States,GNV,KGNV,29.6900997162,-82.2717971802,152,-5,A,America/New_York,airport,OurAirports
1,-82.2189,34.8957,4034,Greenville Spartanburg International Airport,Greenville,United States,GSP,KGSP,34.8956985474,-82.2189025879,964,-5,A,America/New_York,airport,OurAirports
1,-81.9645,33.3699,3658,Augusta Regional At Bush Field,Bush Field,United States,AGS,KAGS,33.36989974975586,-81.9645004272461,144,-5,A,America/New_York,airport,OurAirports
1,-81.8498,41.4117,3486,Cleveland Hopkins International Airport,Cleveland,United States,CLE,KCLE,41.4117012024,-81.8498001099,791,-5,A,America/New_York,airport,OurAirports
1,-81.7596,24.5561,3875,Key West International Airport,Key West,United States,EYW,KEYW,24.556100845336914,-81.75959777832031,3,-5,A,America/New_York,airport,OurAirports
1,-81.7552,26.5362,3793,Southwest Florida International Airport,Fort Myers,United States,RSW,KRSW,26.53619956970215,-81.75520324707031,30,-5,A,America/New_York,airport,OurAirports
1,-81.7112,12.5836,2749,Gustavo Rojas Pinilla International Airport,San Andres Island,Colombia,ADZ,SKSP,12.5836,-81.7112,19,-5,U,America/Bogota,airport,OurAirports
1,-81.6879,30.4941,3712,Jacksonville International Airport,Jacksonville,United States,JAX,KJAX,30.49410057067871,-81.687896728515625,30,-5,A,America/New_York,airport,OurAirports
1,-81.5932,38.3731,4285,Yeager Airport,Charleston,United States,CRW,KCRW,38.37310028076172,-81.59320068359375,981,-5,A,America/New_York,airport,OurAirports
1,-81.4665,31.2588,5725,Brunswick Golden Isles Airport,Brunswick,United States,BQK,KBQK,31.258800506591797,-81.46649932861328,26,-5,A,America/New_York,airport,OurAirports
1,-81.4422,40.9161,4112,Akron Canton Regional Airport,Akron,United States,CAK,KCAK,40.916099548339844,-81.44219970703125,1228,-5,A,America/New_York,airport,OurAirports
1,-81.4392,39.3451,4114,Mid Ohio Valley Regional Airport,PARKERSBURG,United States,PKB,KPKB,39.34510040283203,-81.43920135498047,858,-5,A,America/New_York,airport,OurAirports
1,-81.4353,23.0344,1923,Juan Gualberto Gomez International Airport,Varadero,Cuba,VRA,MUVR,23.034400939941406,-81.435302734375,210,-5,U,America/Havana,airport,OurAirports
1,-81.3577,19.2928,1926,Owen Roberts International Airport,Georgetown,Cayman Islands,GCM,MWCR,19.292800903299998,-81.3576965332,8,-5,N,America/Cayman,airport,OurAirports
1,-81.309,28.4294,3878,Orlando International Airport,Orlando,United States,MCO,KMCO,28.429399490356445,-81.30899810791016,96,-5,A,America/New_York,airport,OurAirports
1,-81.2375,28.7776,4167,Orlando Sanford International Airport,Sanford,United States,SFB,KSFB,28.777599334716797,-81.23750305175781,55,-5,A,America/New_York,airport,OurAirports
1,-81.2021,32.1276,3613,Savannah Hilton Head International Airport,Savannah,United States,SAV,KSAV,32.12760162,-81.20210266,50,-5,A,America/New_York,airport,OurAirports
1,-81.1539,43.0356,174,London Airport,London,Canada,YXU,CYXU,43.035599,-81.1539,912,-5,A,America/Toronto,airport,OurAirports
1,-81.1242,37.7873,5724,Raleigh County Memorial Airport,Beckley,United States,BKW,KBKW,37.787300109899995,-81.1241989136,2504,-5,A,America/New_York,airport,OurAirports
1,-81.1195,33.9388,3561,Columbia Metropolitan Airport,Columbia,United States,CAE,KCAE,33.93880081176758,-81.11949920654297,236,-5,A,America/New_York,airport,OurAirports
1,-81.0581,29.1799,3950,Daytona Beach International Airport,Daytona Beach,United States,DAB,KDAB,29.179899,-81.058098,34,-5,A,America/New_York,airport,OurAirports
1,-80.9431,35.214,3876,Charlotte Douglas International Airport,Charlotte,United States,CLT,KCLT,35.2140007019043,-80.94309997558594,748,-5,A,America/New_York,airport,OurAirports
1,-80.7989,46.625,133,Sudbury Airport,Sudbury,Canada,YSB,CYSB,46.625,-80.79889678955078,1141,-5,A,America/Toronto,airport,OurAirports
1,-80.6975,32.2244,8314,Hilton Head Airport,Hilton Head Island,United States,HHH,KHXD,32.2243995667,-80.6975021362,19,-5,A,America/New_York,airport,OurAirports
1,-80.6453,28.1028,3671,Melbourne International Airport,Melbourne,United States,MLB,KMLB,28.102800369262695,-80.64530181884766,33,-5,A,America/New_York,airport,OurAirports
1,-80.6164,-5.2058,NA,NA,NA,NA,NA,NA,NA,NA,NA,NA,NA,NA,NA,NA
1,-80.3995,37.8583,6958,Greenbrier Valley Airport,Lewisburg,United States,LWB,KLWB,37.8582992554,-80.3994979858,2302,-5,U,America/New_York,airport,OurAirports
1,-80.3814,-3.5525,2796,Capitan FAP Pedro Canga Rodriguez Airport,Tumbes,Peru,TBP,SPME,-3.55253005027771,-80.38140106201172,115,-5,U,America/Lima,airport,OurAirports
1,-80.3786,43.4608,79,Waterloo Airport,Waterloo,Canada,YKF,CYKF,43.460800170899994,-80.3786010742,1055,-5,A,America/Toronto,airport,OurAirports
1,-80.2906,25.7932,3576,Miami International Airport,Miami,United States,MIA,KMIA,25.79319953918457,-80.29060363769531,8,-5,A,America/New_York,airport,OurAirports
1,-80.2329,40.4915,3570,Pittsburgh International Airport,Pittsburgh,United States,PIT,KPIT,40.49150085,-80.23290253,1203,-5,A,America/New_York,airport,OurAirports
1,-80.2281,39.2966,5730,North Central West Virginia Airport,Clarksburg,United States,CKB,KCKB,39.2966003418,-80.2281036377,1217,-5,A,America/New_York,airport,OurAirports
1,-80.1739,42.0831,4276,Erie International Tom Ridge Field,Erie,United States,ERI,KERI,42.0831270134,-80.1738667488,732,-5,A,America/New_York,airport,OurAirports
1,-80.1527,26.0726,3533,Fort Lauderdale Hollywood International Airport,Fort Lauderdale,United States,FLL,KFLL,26.072599,-80.152702,9,-5,A,America/New_York,airport,OurAirports
1,-80.0956,26.6832,3722,Palm Beach International Airport,West Palm Beach,United States,PBI,KPBI,26.68320083618164,-80.09559631347656,19,-5,A,America/New_York,airport,OurAirports
1,-80.0405,32.8986,3806,Charleston Air Force Base-International Airport,Charleston,United States,CHS,KCHS,32.89860153,-80.04049683,46,-5,A,America/New_York,airport,OurAirports
1,-79.9754,37.3255,4016,Roanoke–Blacksburg Regional Airport,Roanoke VA,United States,ROA,KROA,37.3255,-79.975403,1175,-5,A,America/New_York,airport,OurAirports
1,-79.9373,36.0978,4008,Piedmont Triad International Airport,Greensboro,United States,GSO,KGSO,36.097801208496094,-79.93730163574219,925,-5,A,America/New_York,airport,OurAirports
1,-79.935,43.1736,70,John C. Munro Hamilton International Airport,Hamilton,Canada,YHM,CYHM,43.173599243199995,-79.93499755859999,780,-5,A,America/Toronto,airport,OurAirports
1,-79.9163,39.6429,4284,Morgantown Municipal Walter L. Bill Hart Field,Morgantown,United States,MGW,KMGW,39.64289856,-79.91629791,1248,-5,A,America/New_York,airport,OurAirports
1,-79.8836,-2.1574,2673,José Joaquín de Olmedo International Airport,Guayaquil,Ecuador,GYE,SEGU,-2.1574199199699997,-79.88359832760001,19,-5,U,America/Guayaquil,airport,OurAirports
1,-79.8828,19.687,1925,Gerrard Smith International Airport,Cayman Brac,Cayman Islands,CYB,MWCB,19.687000274658203,-79.88279724121094,8,-5,N,America/Cayman,airport,OurAirports
1,-79.8281,-6.7875,2785,Capitan FAP Jose A Quinones Gonzales International Airport,Chiclayo,Peru,CIX,SPHI,-6.787479877471924,-79.8281021118164,97,-5,U,America/Lima,airport,OurAirports
1,-79.7239,34.1854,3879,Florence Regional Airport,Florence,United States,FLO,KFLO,34.18539810180664,-79.7238998413086,146,-5,A,America/New_York,airport,OurAirports
1,-79.6306,43.6772,193,Lester B. Pearson International Airport,Toronto,Canada,YYZ,CYYZ,43.6772003174,-79.63059997559999,569,-5,A,America/Toronto,airport,OurAirports
1,-79.4048,40.2759,5747,Arnold Palmer Regional Airport,Latrobe,United States,LBE,KLBE,40.27590179,-79.40480042,1199,-5,A,America/New_York,airport,OurAirports
1,-79.3962,43.6275,144,Billy Bishop Toronto City Centre Airport,Toronto,Canada,YTZ,CYTZ,43.627499,-79.396202,252,-5,A,America/Toronto,airport,OurAirports
1,-79.3835,9.0714,1871,Tocumen International Airport,Panama City,Panama,PTY,MPTO,9.0713596344,-79.3834991455,135,-5,U,America/Panama,airport,OurAirports
1,-79.258,42.1534,7059,Chautauqua County-Jamestown Airport,Jamestown,United States,JHW,KJHW,42.15340042,-79.25800323,1723,-5,A,America/New_York,airport,OurAirports
1,-79.2004,37.3267,5753,Lynchburg Regional Preston Glenn Field,Lynchburg,United States,LYH,KLYH,37.326698303222656,-79.20040130615234,938,-5,A,America/New_York,airport,OurAirports
1,-79.1088,-8.0814,2804,Capitan FAP Carlos Martinez De Pinillos International Airport,Trujillo,Peru,TRU,SPRU,-8.08141040802002,-79.10880279541016,106,-5,U,America/Lima,airport,OurAirports
1,-78.9844,-2.8895,2671,Mariscal Lamar Airport,Cuenca,Ecuador,CUE,SECU,-2.88947,-78.984398,8306,-5,U,America/Guayaquil,airport,OurAirports
1,-78.9462,43.1073,3630,Niagara Falls International Airport,Niagara Falls,United States,IAG,KIAG,43.1072998046875,-78.946197509765625,589,-5,A,America/New_York,airport,OurAirports
1,-78.9283,33.6797,3515,Myrtle Beach International Airport,Myrtle Beach,United States,MYR,KMYR,33.6796989441,-78.9282989502,25,-5,A,America/New_York,airport,OurAirports
1,-78.8987,41.1783,5734,DuBois Regional Airport,Du Bois,United States,DUJ,KDUJ,41.17829895,-78.8986969,1817,-5,A,America/New_York,airport,OurAirports
1,-78.8964,38.2638,7062,Shenandoah Valley Regional Airport,Weyers Cave,United States,SHD,KSHD,38.2638015747,-78.8964004517,1201,-5,A,America/New_York,airport,OurAirports
1,-78.8803,34.9912,5738,Fayetteville Regional Grannis Field,Fayetteville,United States,FAY,KFAY,34.9911994934082,-78.88030242919922,189,-5,A,America/New_York,airport,OurAirports
1,-78.8339,40.3161,4169,John Murtha Johnstown Cambria County Airport,Johnstown,United States,JST,KJST,40.31610107421875,-78.83390045166016,2284,-5,A,America/New_York,airport,OurAirports
1,-78.7875,35.8776,3626,Raleigh Durham International Airport,Raleigh-durham,United States,RDU,KRDU,35.877601623535156,-78.7874984741211,435,-5,A,America/New_York,airport,OurAirports
1,-78.7322,42.9405,3820,Buffalo Niagara International Airport,Buffalo,United States,BUF,KBUF,42.94049835,-78.73220062,728,-5,A,America/New_York,airport,OurAirports
1,-78.6956,26.5587,1948,Grand Bahama International Airport,Freeport,Bahamas,FPO,MYGF,26.5587005615,-78.695602417,7,-5,U,America/Nassau,airport,OurAirports
1,-78.4894,-7.1392,6066,Mayor General FAP Armando Revoredo Iglesias Airport,Cajamarca,Peru,CJA,SPJR,-7.1391801834106445,-78.4894027709961,8781,-5,U,America/Lima,airport,OurAirports
1,-78.4529,38.1386,4015,Charlottesville Albemarle Airport,Charlottesville VA,United States,CHO,KCHO,38.13859939575195,-78.4529037475586,639,-5,A,America/New_York,airport,OurAirports
1,-78.3575,-0.1292,2688,Mariscal Sucre International Airport,Quito,Ecuador,UIO,SEQM,-0.129166666667,-78.3575,7841,-5,U,America/Guayaquil,airport,OurAirports
1,-78.32,40.2964,3694,Altoona Blair County Airport,Altoona,United States,AOO,KAOO,40.29639816,-78.31999969,1503,-5,A,America/New_York,airport,OurAirports
1,-77.9134,18.5037,1780,Sangster International Airport,Montego Bay,Jamaica,MBJ,MKJS,18.503700256347656,-77.91339874267578,4,-5,U,America/Jamaica,airport,OurAirports
1,-77.9026,34.2706,3845,Wilmington International Airport,Wilmington,United States,ILM,KILM,34.270599365234375,-77.90260314941406,32,-5,A,America/New_York,airport,OurAirports
1,-77.8487,40.8493,4318,University Park Airport,State College Pennsylvania,United States,SCE,KUNV,40.8493003845,-77.84870147710001,1239,-5,A,America/New_York,airport,OurAirports
1,-77.7295,39.7079,6739,Hagerstown Regional Richard A Henson Field,Hagerstown,United States,HGR,KHGR,39.707901,-77.72949982,703,-5,A,America/New_York,airport,OurAirports
1,-77.6724,43.1189,3622,Greater Rochester International Airport,Rochester,United States,ROC,KROC,43.118900299072266,-77.67240142822266,559,-5,A,America/New_York,airport,OurAirports
1,-77.6121,34.8292,4386,Albert J Ellis Airport,Jacksonville NC,United States,OAJ,KOAJ,34.8292007446,-77.61209869380001,94,-5,A,America/New_York,airport,OurAirports
1,-77.4662,25.039,1953,Lynden Pindling International Airport,Nassau,Bahamas,NAS,MYNN,25.0389995575,-77.46620178219999,16,-5,U,America/Nassau,airport,OurAirports
1,-77.4558,38.9445,3714,Washington Dulles International Airport,Washington,United States,IAD,KIAD,38.94449997,-77.45580292,312,-5,A,America/New_York,airport,OurAirports
1,-77.3913,26.7453,1934,Treasure Cay Airport,Treasure Cay,Bahamas,TCB,MYAT,26.745300293,-77.3912963867,8,-5,U,America/Nassau,airport,OurAirports
1,-77.3853,35.6352,6959,Pitt Greenville Airport,Greenville,United States,PGV,KPGV,35.6352005,-77.38529968,26,-5,A,America/New_York,airport,OurAirports
1,-77.3197,37.5052,3608,Richmond International Airport,Richmond,United States,RIC,KRIC,37.50519943237305,-77.3197021484375,167,-5,A,America/New_York,airport,OurAirports
1,-77.0835,26.5114,1930,Leonard M Thompson International Airport,Marsh Harbor,Bahamas,MHH,MYAM,26.5114,-77.083503,6,-5,U,America/Nassau,airport,OurAirports
1,-77.0429,35.073,3730,Coastal Carolina Regional Airport,New Bern,United States,EWN,KEWN,35.0730018616,-77.04290008539999,18,-5,A,America/New_York,airport,OurAirports
1,-77.0377,38.8521,3520,Ronald Reagan Washington National Airport,Washington,United States,DCA,KDCA,38.8521,-77.037697,15,-5,A,America/New_York,airport,OurAirports
1,-76.9989,-12.1607,2795,Las Palmas Air Base,Las Palmas,Peru,NA,SPLP,-12.16069984436,-76.998901367188,250,-5,U,America/Lima,airport,OurAirports
1,-76.9211,41.2418,3584,Williamsport Regional Airport,Williamsport,United States,IPT,KIPT,41.241798400878906,-76.92109680175781,529,-5,A,America/New_York,airport,OurAirports
1,-76.8916,42.1599,3946,Elmira Corning Regional Airport,Elmira,United States,ELM,KELM,42.1599006652832,-76.8916015625,954,-5,A,America/New_York,airport,OurAirports
1,-76.7875,17.9357,1779,Norman Manley International Airport,Kingston,Jamaica,KIN,MKJP,17.935699462890625,-76.7874984741211,10,-5,U,America/Jamaica,airport,OurAirports
1,-76.7634,40.1935,3542,Harrisburg International Airport,Harrisburg,United States,MDT,KMDT,40.1935005188,-76.7633972168,310,-5,A,America/New_York,airport,OurAirports
1,-76.6835,25.4749,1943,North Eleuthera Airport,North Eleuthera,Bahamas,ELH,MYEH,25.474899292,-76.6835021973,13,-5,U,America/Nassau,airport,OurAirports
1,-76.6683,39.1754,3849,Baltimore/Washington International Thurgood Marshall Airport,Baltimore,United States,BWI,KBWI,39.1754,-76.668297,146,-5,A,America/New_York,airport,OurAirports
1,-76.493,37.1319,3633,Newport News Williamsburg International Airport,Newport News,United States,PHF,KPHF,37.13190079,-76.49299622,42,-5,A,America/New_York,airport,OurAirports
1,-76.4584,42.491,3947,Ithaca Tompkins Regional Airport,Ithaca,United States,ITH,KITH,42.49100112915039,-76.4583969116211,1099,-5,A,America/New_York,airport,OurAirports
2,-76.3816,3.5432,2715,Alfonso Bonilla Aragon International Airport,Cali,Colombia,CLO,SKCL,3.54322,-76.3816,3162,-5,U,America/Bogota,airport,OurAirports
1,-76.3732,-6.5087,2806,Cadete FAP Guillermo Del Castillo Paredes Airport,Tarapoto,Peru,TPP,SPST,-6.508739948272705,-76.373199462890625,869,-5,U,America/Lima,airport,OurAirports
1,-76.331,25.2847,1944,Governor's Harbour Airport,Governor's Harbor,Bahamas,GHB,MYEM,25.2847003937,-76.3310012817,26,-5,U,America/Nassau,airport,OurAirports
1,-76.2961,40.1217,5751,Lancaster Airport,Lancaster,United States,LNS,KLNS,40.121700286865234,-76.29609680175781,403,-5,A,America/New_York,airport,OurAirports
1,-76.2012,36.8946,3611,Norfolk International Airport,Norfolk,United States,ORF,KORF,36.89459991455078,-76.201202392578125,26,-5,A,America/New_York,airport,OurAirports
1,-76.1063,43.1112,3745,Syracuse Hancock International Airport,Syracuse,United States,SYR,KSYR,43.11119842529297,-76.1063003540039,421,-5,A,America/New_York,airport,OurAirports
1,-75.9798,42.2087,4129,Greater Binghamton/Edwin A Link field,Binghamton,United States,BGM,KBGM,42.20869827,-75.97979736,1636,-5,A,America/New_York,airport,OurAirports
1,-75.878,23.5626,1941,Exuma International Airport,Great Exuma,Bahamas,GGT,MYEF,23.5625991821,-75.8779983521,9,-5,U,America/Nassau,airport,OurAirports
1,-75.7664,4.4528,2705,El Eden Airport,Armenia,Colombia,AXM,SKAR,4.45278,-75.7664,3990,-5,U,America/Bogota,airport,OurAirports
1,-75.7395,4.8127,2739,Matecaña International Airport,Pereira,Colombia,PEI,SKPE,4.81267,-75.7395,4416,-5,U,America/Bogota,airport,OurAirports
1,-75.7234,41.3385,4286,Wilkes Barre Scranton International Airport,Scranton,United States,AVP,KAVP,41.338500976599995,-75.72339630130001,962,-5,A,America/New_York,airport,OurAirports
1,-75.6692,45.3225,100,Ottawa Macdonald-Cartier International Airport,Ottawa,Canada,YOW,CYOW,45.3224983215332,-75.66919708251953,374,-5,A,America/Toronto,airport,OurAirports
1,-75.6065,39.6787,3859,New Castle Airport,Wilmington,United States,ILG,KILG,39.67869949,-75.60649872,80,-5,A,America/New_York,airport,OurAirports
1,-75.513,10.4424,2714,Rafael Nuñez International Airport,Cartagena,Colombia,CTG,SKCG,10.4424,-75.513,4,-5,U,America/Bogota,airport,OurAirports
1,-75.5103,38.3405,3642,Salisbury Ocean City Wicomico Regional Airport,Salisbury,United States,SBY,KSBY,38.34049987792969,-75.51029968261719,52,-5,A,America/New_York,airport,OurAirports
1,-75.4408,40.6521,4355,Lehigh Valley International Airport,Allentown,United States,ABE,KABE,40.652099609375,-75.44080352783203,393,-5,A,America/New_York,airport,OurAirports
1,-75.4231,6.1645,2745,Jose Maria Córdova International Airport,Rio Negro,Colombia,MDE,SKRG,6.16454,-75.4231,6955,-5,U,America/Bogota,airport,OurAirports
1,-75.2411,39.8719,3752,Philadelphia International Airport,Philadelphia,United States,PHL,KPHL,39.87189865112305,-75.24109649658203,36,-5,A,America/New_York,airport,OurAirports
1,-74.8135,40.2767,3447,Trenton Mercer Airport,Trenton,United States,TTN,KTTN,40.27669906616211,-74.8134994506836,213,-5,A,America/New_York,airport,OurAirports
1,-74.7808,10.8896,2710,Ernesto Cortissoz International Airport,Barranquilla,Colombia,BAQ,SKBQ,10.8896,-74.7808,98,-5,U,America/Bogota,airport,OurAirports
1,-74.5772,39.4576,3524,Atlantic City International Airport,Atlantic City,United States,ACY,KACY,39.45759963989258,-74.57720184326172,75,-5,A,America/New_York,airport,OurAirports
1,-74.5743,-8.3779,2781,Cap FAP David Abenzur Rengifo International Airport,Pucallpa,Peru,PCL,SPCL,-8.37794017791748,-74.57430267333984,513,-5,U,America/Lima,airport,OurAirports
1,-74.2306,11.1196,2748,Simón Bolívar International Airport,Santa Marta,Colombia,SMR,SKSM,11.1196,-74.2306,22,-5,U,America/Bogota,airport,OurAirports
1,-74.1687,40.6925,3494,Newark Liberty International Airport,Newark,United States,EWR,KEWR,40.692501068115234,-74.168701171875,18,-5,A,America/New_York,airport,OurAirports
1,-74.1469,4.7016,2709,El Dorado International Airport,Bogota,Colombia,BOG,SKBO,4.70159,-74.1469,8361,-5,U,America/Bogota,airport,OurAirports
1,-74.1048,41.5041,3661,Stewart International Airport,Newburgh,United States,SWF,KSWF,41.50410079956055,-74.10479736328125,491,-5,A,America/New_York,airport,OurAirports
1,-73.8726,40.7772,3697,La Guardia Airport,New York,United States,LGA,KLGA,40.77719879,-73.87259674,21,-5,A,America/New_York,airport,OurAirports
1,-73.8017,42.7483,3864,Albany International Airport,Albany,United States,ALB,KALB,42.74829864501953,-73.80169677734375,285,-5,A,America/New_York,airport,OurAirports
1,-73.7789,40.6398,3797,John F Kennedy International Airport,New York,United States,JFK,KJFK,40.63980103,-73.77890015,13,-5,A,America/New_York,airport,OurAirports
1,-73.7408,45.4706,146,Montreal / Pierre Elliott Trudeau International Airport,Montreal,Canada,YUL,CYUL,45.4706001282,-73.7407989502,118,-5,A,America/Toronto,airport,OurAirports
1,-73.7076,41.067,3589,Westchester County Airport,White Plains,United States,HPN,KHPN,41.06700134277344,-73.70760345458984,439,-5,A,America/New_York,airport,OurAirports
1,-73.4681,44.6509,3771,Plattsburgh International Airport,Plattsburgh,United States,PBG,KPBG,44.650901794433594,-73.46810150146484,234,-5,A,America/New_York,airport,OurAirports
1,-73.3088,-3.7847,2801,Coronel FAP Francisco Secada Vignetta International Airport,Iquitos,Peru,IQT,SPQT,-3.7847399711608887,-73.30879974365234,306,-5,U,America/Lima,airport,OurAirports
1,-73.1848,7.1265,2708,Palonegro Airport,Bucaramanga,Colombia,BGA,SKBG,7.1265,-73.1848,3897,-5,U,America/Bogota,airport,OurAirports
1,-73.1533,44.4719,3711,Burlington International Airport,Burlington,United States,BTV,KBTV,44.471900939899996,-73.15329742429999,335,-5,A,America/New_York,airport,OurAirports
1,-73.1002,40.7952,3857,Long Island Mac Arthur Airport,Islip,United States,ISP,KISP,40.79520035,-73.10019684,99,-5,A,America/New_York,airport,OurAirports
1,-72.9496,43.5294,5767,Rutland - Southern Vermont Regional Airport,Rutland,United States,RUT,KRUT,43.52939987,-72.94960022,787,-5,A,America/New_York,airport,OurAirports
1,-72.8868,41.2637,4006,Tweed New Haven Airport,New Haven,United States,HVN,KHVN,41.26369858,-72.88680267,12,-5,A,America/New_York,airport,OurAirports
1,-72.6832,41.9389,3825,Bradley International Airport,Windsor Locks,United States,BDL,KBDL,41.9388999939,-72.68319702149999,173,-5,A,America/New_York,airport,OurAirports
1,-72.5115,7.9276,2713,Camilo Daza International Airport,Cucuta,Colombia,CUC,SKCC,7.92757,-72.5115,1096,-5,U,America/Bogota,airport,OurAirports
1,-72.3042,43.6261,5749,Lebanon Municipal Airport,Lebanon,United States,LEB,KLEB,43.626098632799994,-72.30419921880001,603,-5,A,America/New_York,airport,OurAirports
1,-72.2925,18.58,1897,Toussaint Louverture International Airport,Port-au-prince,Haiti,PAP,MTPP,18.579999923706055,-72.2925033569336,122,-5,U,America/Port-au-Prince,airport,OurAirports
1,-72.2659,21.7736,1754,Providenciales Airport,Providenciales,Turks and Caicos Islands,PLS,MBPV,21.77359962463379,-72.265899658203125,15,-4,U,America/Grand_Turk,airport,OurAirports
1,-72.0351,7.5654,2861,Mayor Buenaventura Vivas International Airport,Santo Domingo,Venezuela,STD,SVSO,7.56538,-72.035103,1083,-4,U,America/Caracas,airport,OurAirports
1,-71.9388,-13.5357,2812,Alejandro Velasco Astete International Airport,Cuzco,Peru,CUZ,SPZO,-13.535699844400002,-71.9387969971,10860,-5,U,America/Lima,airport,OurAirports
1,-71.8757,42.2673,6426,Worcester Regional Airport,Worcester,United States,ORH,KORH,42.26729965209961,-71.875701904296875,1009,-5,A,America/New_York,airport,OurAirports
1,-71.7279,10.5582,2848,La Chinita International Airport,Maracaibo,Venezuela,MAR,SVMC,10.5582084656,-71.7278594971,239,-4,U,America/Caracas,airport,OurAirports
1,-71.5831,-16.3411,2802,Rodríguez Ballón International Airport,Arequipa,Peru,AQP,SPQU,-16.3411006927,-71.5830993652,8405,-5,U,America/Lima,airport,OurAirports
1,-71.4357,42.9326,4011,Manchester-Boston Regional Airport,Manchester NH,United States,MHT,KMHT,42.932598,-71.435699,266,-5,A,America/New_York,airport,OurAirports
1,-71.4204,41.7326,3641,Theodore Francis Green State Airport,Providence,United States,PVD,KPVD,41.732601,-71.420403,55,-5,A,America/New_York,airport,OurAirports
1,-71.3933,46.7911,111,Quebec Jean Lesage International Airport,Quebec,Canada,YQB,CYQB,46.7911,-71.393303,244,-5,A,America/Toronto,airport,OurAirports
1,-71.1575,-41.1512,2513,San Carlos De Bariloche Airport,San Carlos De Bariloche,Argentina,BRC,SAZS,-41.151199,-71.157501,2774,-3,N,America/Argentina/Salta,airport,OurAirports
1,-71.0052,42.3643,3448,General Edward Lawrence Logan International Airport,Boston,United States,BOS,KBOS,42.36429977,-71.00520325,20,-5,A,America/New_York,airport,OurAirports
1,-70.8546,-53.0026,2647,Pdte. Carlos Ibañez del Campo Airport,Punta Arenas,Chile,PUQ,SCCI,-53.002602,-70.854599,139,-4,S,America/Santiago,airport,OurAirports
1,-70.7858,-33.393,2650,Comodoro Arturo Merino Benítez International Airport,Santiago,Chile,SCL,SCEL,-33.393001556396484,-70.785797119140625,1555,-4,S,America/Santiago,airport,OurAirports
1,-70.7006,19.4699,NA,NA,NA,NA,NA,NA,NA,NA,NA,NA,NA,NA,NA,NA
1,-70.6143,41.3931,4265,Martha's Vineyard Airport,Vineyard Haven MA,United States,MVY,KMVY,41.3931007385,-70.6143035889,67,-5,A,America/New_York,airport,OurAirports
1,-70.57,19.7579,1761,Gregorio Luperon International Airport,Puerto Plata,Dominican Republic,POP,MDPP,19.75790023803711,-70.56999969482422,15,-4,U,America/Santo_Domingo,airport,OurAirports
1,-70.3093,43.6462,3862,Portland International Jetport Airport,Portland,United States,PWM,KPWM,43.64619827,-70.30930328,76,-5,A,America/New_York,airport,OurAirports
1,-70.2804,41.6693,4278,Barnstable Municipal Boardman Polando Field,Barnstable,United States,HYA,KHYA,41.66930008,-70.28040314,54,-5,A,America/New_York,airport,OurAirports
1,-70.2758,-18.0533,2807,Coronel FAP Carlos Ciriani Santa Rosa International Airport,Tacna,Peru,TCQ,SPTN,-18.053300857500002,-70.2758026123,1538,-5,U,America/Lima,airport,OurAirports
1,-70.2214,42.0719,6456,Provincetown Municipal Airport,Provincetown,United States,PVC,KPVC,42.0718994141,-70.2213973999,9,-5,A,America/New_York,airport,OurAirports
1,-70.1582,-15.4671,2792,Inca Manco Capac International Airport,Juliaca,Peru,JUL,SPJL,-15.467100143432617,-70.158203125,12552,-5,U,America/Lima,airport,OurAirports
1,-70.0602,41.2531,3517,Nantucket Memorial Airport,Nantucket,United States,ACK,KACK,41.25310135,-70.06020355,47,-5,A,America/New_York,airport,OurAirports
1,-70.0152,12.5014,2895,Queen Beatrix International Airport,Oranjestad,Aruba,AUA,TNCA,12.5014,-70.015198,60,-4,U,America/Aruba,airport,OurAirports
1,-69.7973,44.3206,3701,Augusta State Airport,Augusta,United States,AUG,KAUG,44.320598602299995,-69.7973022461,352,-5,A,America/New_York,airport,OurAirports
1,-69.6689,18.4297,1762,Las Américas International Airport,Santo Domingo,Dominican Republic,SDQ,MDSD,18.42970085144,-69.668899536133,59,-4,U,America/Santo_Domingo,airport,OurAirports
1,-69.2286,-12.6136,2808,Padre Aldamiz International Airport,Puerto Maldonado,Peru,PEM,SPTU,-12.6135997772,-69.2285995483,659,-5,U,America/Lima,airport,OurAirports
1,-68.9598,12.1889,2897,Hato International Airport,Willemstad,Netherlands Antilles,CUR,TNCC,12.1889,-68.959801,29,-4,U,America/Curacao,airport,OurAirports
1,-68.9118,18.4507,1759,Casa De Campo International Airport,La Romana,Dominican Republic,LRM,MDLR,18.450700759887695,-68.91179656982422,240,-4,U,America/Santo_Domingo,airport,OurAirports
1,-68.8281,44.8074,3463,Bangor International Airport,Bangor,United States,BGR,KBGR,44.80739974975586,-68.8281021118164,192,-5,A,America/New_York,airport,OurAirports
1,-68.7929,-32.8317,2452,El Plumerillo Airport,Mendoza,Argentina,MDZ,SAME,-32.8316993713,-68.7929000854,2310,-3,N,America/Mendoza,airport,OurAirports
1,-68.3634,18.5674,1760,Punta Cana International Airport,Punta Cana,Dominican Republic,PUJ,MDPC,18.567399978599997,-68.36340332030001,47,-4,U,America/Santo_Domingo,airport,OurAirports
1,-68.3615,44.45,4025,Hancock County-Bar Harbor Airport,Bar Harbor,United States,BHB,KBHB,44.45000076,-68.3615036,83,-5,A,America/New_York,airport,OurAirports
1,-68.2685,12.131,2896,Flamingo International Airport,Kralendijk,Netherlands Antilles,BON,TNCB,12.130999565124512,-68.26850128173828,20,-4,U,America/Curacao,airport,OurAirports
1,-68.1923,-16.5133,2762,El Alto International Airport,La Paz,Bolivia,LPB,SLLP,-16.5132999420166,-68.19229888916016,13355,-4,U,America/La_Paz,airport,OurAirports
1,-68.0448,46.689,3528,Northern Maine Regional Airport at Presque Isle,Presque Isle,United States,PQI,KPQI,46.68899918,-68.0447998,534,-5,A,America/New_York,airport,OurAirports
1,-67.9284,10.1497,2868,Arturo Michelena International Airport,Valencia,Venezuela,VLN,SVVA,10.14973258972168,-67.92839813232422,1411,-4,U,America/Caracas,airport,OurAirports
1,-67.1485,18.2557,2888,Eugenio Maria De Hostos Airport,Mayaguez,Puerto Rico,MAZ,TJMZ,18.255699157714844,-67.14849853515625,28,-4,U,America/Puerto_Rico,airport,OurAirports
1,-67.1294,18.4949,2885,Rafael Hernandez Airport,Aguadilla,Puerto Rico,BQN,TJBQ,18.49489974975586,-67.12940216064453,237,-4,U,America/Puerto_Rico,airport,OurAirports
1,-66.9906,10.6031,NA,NA,NA,NA,NA,NA,NA,NA,NA,NA,NA,NA,NA,NA
1,-66.563,18.0083,2889,Mercedita Airport,Ponce,Puerto Rico,PSE,TJPS,18.00830078125,-66.56300354003906,29,-4,U,America/Puerto_Rico,airport,OurAirports
1,-66.5372,45.8689,56,Fredericton Airport,Fredericton,Canada,YFC,CYFC,45.868900299072266,-66.537200927734375,68,-4,A,America/Halifax,airport,OurAirports
1,-66.0018,18.4394,2890,Luis Munoz Marin International Airport,San Juan,Puerto Rico,SJU,TJSJ,18.4393997192,-66.0018005371,9,-4,U,America/Puerto_Rico,airport,OurAirports
1,-65.8903,45.3161,135,Saint John Airport,St. John,Canada,YSJ,CYSJ,45.31610107421875,-65.89029693603516,357,-4,A,America/Halifax,airport,OurAirports
1,-65.4936,18.1348,NA,NA,NA,NA,NA,NA,NA,NA,NA,NA,NA,NA,NA,NA
1,-64.9734,18.3373,2883,Cyril E. King Airport,St. Thomas,Virgin Islands,STT,TIST,18.337299346923828,-64.97339630126953,23,-4,U,America/St_Thomas,airport,OurAirports
1,-64.7986,17.7019,2884,Henry E Rohlsen Airport,St. Croix Island,Virgin Islands,STX,TISX,17.701900482177734,-64.79859924316406,74,-4,U,America/St_Thomas,airport,OurAirports
1,-64.6787,32.364,4069,L.F. Wade International International Airport,Bermuda,Bermuda,BDA,TXKF,32.36399841308594,-64.67870330810547,12,-4,A,Atlantic/Bermuda,airport,OurAirports
1,-64.6786,46.1122,117,Greater Moncton International Airport,Moncton,Canada,YQM,CYQM,46.11220169067383,-64.67859649658203,232,-4,A,America/Halifax,airport,OurAirports
1,-64.543,18.4448,2903,Terrance B. Lettsome International Airport,Tortola,British Virgin Islands,EIS,TUPJ,18.444799423217773,-64.542999267578125,15,-4,U,America/Tortola,airport,OurAirports
1,-64.208,-31.3236,2443,Ingeniero Ambrosio Taravella Airport,Cordoba,Argentina,COR,SACO,-31.323601,-64.208,1604,-3,N,America/Cordoba,airport,OurAirports
1,-63.5086,44.8808,73,Halifax / Stanfield International Airport,Halifax,Canada,YHZ,CYHZ,44.8807983398,-63.5085983276,477,-4,A,America/Halifax,airport,OurAirports
1,-63.1354,-17.6448,2771,Viru Viru International Airport,Santa Cruz,Bolivia,VVI,SLVR,-17.6448,-63.135399,1224,-4,U,America/La_Paz,airport,OurAirports
1,-63.1211,46.29,182,Charlottetown Airport,Charlottetown,Canada,YYG,CYYG,46.290000915527344,-63.12110137939453,160,-4,A,America/Halifax,airport,OurAirports
1,-63.1089,18.041,2899,Princess Juliana International Airport,Philipsburg,Netherlands Antilles,SXM,TNCM,18.041000366200002,-63.1088981628,13,-4,U,America/Curacao,airport,OurAirports
1,-63.0551,18.2048,2900,Clayton J Lloyd International Airport,The Valley,Anguilla,AXA,TQPF,18.2048,-63.055099,127,-4,U,America/Anguilla,airport,OurAirports
1,-62.8436,17.9044,6460,Gustaf III Airport,Gustavia,France,SBH,TFFJ,17.904399871826172,-62.84360122680664,49,-4,E,NA,airport,OurAirports
1,-62.7187,17.3112,2891,Robert L. Bradshaw International Airport,Basse Terre,Saint Kitts and Nevis,SKB,TKPK,17.311199188232422,-62.71870040893555,170,-4,U,America/St_Kitts,airport,OurAirports
1,-62.5899,17.2057,6079,Vance W. Amory International Airport,Charlestown,Saint Kitts and Nevis,NEV,TKPN,17.205699920654297,-62.589900970458984,14,-4,U,America/St_Kitts,airport,OurAirports
1,-61.7927,17.1367,2874,V.C. Bird International Airport,Antigua,Antigua and Barbuda,ANU,TAPA,17.1367,-61.792702,62,-4,U,America/Antigua,airport,OurAirports
1,-61.7862,12.0042,2882,Point Salines International Airport,Point Salines,Grenada,GND,TGPY,12.004199981689453,-61.78620147705078,41,-4,U,America/Grenada,airport,OurAirports
1,-61.3372,10.5954,2902,Piarco International Airport,Port-of-spain,Trinidad and Tobago,POS,TTPP,10.595399856567383,-61.33720016479492,58,-4,U,America/Port_of_Spain,airport,OurAirports
1,-61.3,15.547,2877,Douglas-Charles Airport,Dominica,Dominica,DOM,TDPD,15.547,-61.299999,73,-4,U,America/Dominica,airport,OurAirports
1,-61.2109,13.1443,NA,NA,NA,NA,NA,NA,NA,NA,NA,NA,NA,NA,NA,NA
1,-61.0032,14.591,2878,Martinique Aimé Césaire International Airport,Fort-de-france,Martinique,FDF,TFFF,14.590999603271484,-61.00320053100586,16,-4,U,America/Martinique,airport,OurAirports
1,-60.9929,14.0202,2893,George F. L. Charles Airport,Castries,Saint Lucia,SLU,TLPC,14.0202,-60.992901,22,-4,U,America/St_Lucia,airport,OurAirports
1,-60.9526,13.7332,2894,Hewanorra International Airport,Hewandorra,Saint Lucia,UVF,TLPL,13.7332,-60.952599,14,-4,U,America/St_Lucia,airport,OurAirports
1,-60.8322,11.1497,2901,Tobago-Crown Point Airport,Scarborough,Trinidad and Tobago,TAB,TTCP,11.149700164794922,-60.83219909667969,38,-4,U,America/Port_of_Spain,airport,OurAirports
1,-60.0497,-3.0386,2551,Eduardo Gomes International Airport,Manaus,Brazil,MAO,SBEG,-3.0386099815368652,-60.04970169067383,264,-4,S,America/Boa_Vista,airport,OurAirports
1,-60.0478,46.1614,126,Sydney / J.A. Douglas McCurdy Airport,Sydney,Canada,YQY,CYQY,46.1614,-60.047798,203,-4,A,America/Halifax,airport,OurAirports
1,-59.4925,13.0746,2875,Sir Grantley Adams International Airport,Bridgetown,Barbados,BGI,TBPB,13.0746002197,-59.4925003052,169,-4,U,America/Barbados,airport,OurAirports
1,-59.0561,-27.45,2469,Resistencia International Airport,Resistencia,Argentina,RES,SARE,-27.45,-59.0561,173,-3,N,America/Cordoba,airport,OurAirports
1,-58.5358,-34.8222,3988,Ministro Pistarini International Airport,Buenos Aires,Argentina,EZE,SAEZ,-34.8222,-58.5358,67,-3,N,America/Buenos_Aires,airport,OurAirports
1,-58.4156,-34.5592,2442,Jorge Newbery Airpark,Buenos Aires,Argentina,AEP,SABE,-34.5592,-58.4156,18,-3,N,America/Buenos_Aires,airport,OurAirports
1,-58.2541,6.4986,NA,NA,NA,NA,NA,NA,NA,NA,NA,NA,NA,NA,NA,NA
1,-57.5733,-37.9342,2508,Ástor Piazzola International Airport,Mar Del Plata,Argentina,MDQ,SAZM,-37.9342,-57.5733,72,-3,N,America/Buenos_Aires,airport,OurAirports
1,-57.52,-25.24,2699,Silvio Pettirossi International Airport,Asuncion,Paraguay,ASU,SGAS,-25.239999771118164,-57.52000045776367,292,-4,S,America/Asuncion,airport,OurAirports
1,-57.3914,49.2108,45,Deer Lake Airport,Deer Lake,Canada,YDF,CYDF,49.21080017089844,-57.39139938354492,72,-3.5,A,America/St_Johns,airport,OurAirports
1,-56.1167,-15.6529,2548,Marechal Rondon Airport,Cuiaba,Brazil,CGB,SBCY,-15.6528997421,-56.1166992188,617,-4,S,America/Campo_Grande,airport,OurAirports
1,-56.0308,-34.8384,2816,Carrasco International /General C L Berisso Airport,Montevideo,Uruguay,MVD,SUMU,-34.838402,-56.0308,105,-3,S,America/Montevideo,airport,OurAirports
1,-55.1878,5.4528,2773,Johan Adolf Pengel International Airport,Zandery,Suriname,PBM,SMJP,5.4528298377999995,-55.1878013611,59,-3,U,America/Paramaribo,airport,OurAirports
1,-54.6725,-20.4687,2538,Campo Grande Airport,Campo Grande,Brazil,CGR,SBCG,-20.468700408900002,-54.6725006104,1833,-4,S,America/Campo_Grande,airport,OurAirports
1,-54.485,-25.6003,2554,Cataratas International Airport,Foz Do Iguacu,Brazil,IGU,SBFI,-25.600278854370117,-54.48500061035156,786,-3,S,America/Sao_Paulo,airport,OurAirports
1,-54.4734,-25.7373,2471,Cataratas Del Iguazú International Airport,Iguazu Falls,Argentina,IGR,SARI,-25.737301,-54.4734,916,-3,N,America/Cordoba,airport,OurAirports
1,-52.7519,47.6186,189,St. John's International Airport,St. John's,Canada,YYT,CYYT,47.618598938,-52.7518997192,461,-3.5,A,America/St_Johns,airport,OurAirports
1,-51.1714,-29.9944,2599,Salgado Filho Airport,Porto Alegre,Brazil,POA,SBPA,-29.994400024414062,-51.1713981628418,11,-3,S,America/Sao_Paulo,airport,OurAirports
1,-51.1301,-23.3336,2581,Governador José Richa Airport,Londrina,Brazil,LDB,SBLO,-23.333599090599996,-51.1301002502,1867,-3,S,America/Sao_Paulo,airport,OurAirports
1,-49.2207,-16.632,2562,Santa Genoveva Airport,Goiania,Brazil,GYN,SBGO,-16.631999969482422,-49.220699310302734,2450,-3,S,America/Sao_Paulo,airport,OurAirports
1,-49.1758,-25.5285,2545,Afonso Pena Airport,Curitiba,Brazil,CWB,SBCT,-25.5284996033,-49.1758003235,2988,-3,S,America/Sao_Paulo,airport,OurAirports
1,-48.5525,-27.6703,2555,Hercílio Luz International Airport,Florianopolis,Brazil,FLN,SBFL,-27.670278549194336,-48.5525016784668,16,-3,S,America/Sao_Paulo,airport,OurAirports
1,-48.4763,-1.3793,2526,Val de Cans/Júlio Cezar Ribeiro International Airport,Belem,Brazil,BEL,SBBE,-1.3792500495900002,-48.4762992859,54,-3,S,America/Belem,airport,OurAirports
1,-47.9208,-15.8692,2531,Presidente Juscelino Kubistschek International Airport,Brasilia,Brazil,BSB,SBBR,-15.86916732788086,-47.920833587646484,3497,-3,S,America/Sao_Paulo,airport,OurAirports
1,-47.1345,-23.0074,2578,Viracopos International Airport,Campinas,Brazil,VCP,SBKP,-23.0074005127,-47.1344985962,2170,-3,S,America/Sao_Paulo,airport,OurAirports
1,-46.6564,-23.6261,2618,Congonhas Airport,Sao Paulo,Brazil,CGH,SBSP,-23.626110076904297,-46.65638732910156,2631,-3,S,America/Sao_Paulo,airport,OurAirports
1,-46.4731,-23.4356,2564,Guarulhos - Governador André Franco Montoro International Airport,Sao Paulo,Brazil,GRU,SBGR,-23.435556411743164,-46.47305679321289,2459,-3,S,America/Sao_Paulo,airport,OurAirports
1,-43.9719,-19.6244,2537,Tancredo Neves International Airport,Belo Horizonte,Brazil,CNF,SBCF,-19.62444305419922,-43.97194290161133,2715,-3,S,America/Sao_Paulo,airport,OurAirports
1,-43.2506,-22.81,2560,Rio Galeão – Tom Jobim International Airport,Rio De Janeiro,Brazil,GIG,SBGL,-22.8099994659,-43.2505569458,28,-3,S,America/Sao_Paulo,airport,OurAirports
1,-43.1631,-22.9105,2612,Santos Dumont Airport,Rio De Janeiro,Brazil,SDU,SBRJ,-22.910499572799996,-43.1631011963,11,-3,S,America/Sao_Paulo,airport,OurAirports
1,-40.2864,-20.2581,2638,Eurico de Aguiar Salles Airport,Vitoria,Brazil,VIX,SBVT,-20.258057,-40.286388,11,-3,S,America/Sao_Paulo,airport,OurAirports
1,-39.0809,-16.4386,4209,Porto Seguro Airport,Porto Seguro,Brazil,BPS,SBPS,-16.438601,-39.080898,168,-3,S,America/Fortaleza,airport,OurAirports
2,-38.5326,-3.7763,2559,Pinto Martins International Airport,Fortaleza,Brazil,FOR,SBFZ,-3.776279926300049,-38.53260040283203,82,-3,S,America/Fortaleza,airport,OurAirports
1,-38.3225,-12.9086,2621,Deputado Luiz Eduardo Magalhães International Airport,Salvador,Brazil,SSA,SBSV,-12.9086112976,-38.3224983215,64,-3,S,America/Fortaleza,airport,OurAirports
1,-35.7917,-9.5108,2590,Zumbi dos Palmares Airport,Maceio,Brazil,MCZ,SBMO,-9.510809898376465,-35.79169845581055,387,-3,S,America/Fortaleza,airport,OurAirports
1,-35.2477,-5.9114,13723,Augusto Severo Airport,Natal,Brazil,NA,SBNT,-5.91141986847,-35.2476997375,169,NA,NA,NA,airport,OurAirports
1,-34.9486,-7.1458,2575,Presidente Castro Pinto International Airport,Joao Pessoa,Brazil,JPA,SBJP,-7.145833015440001,-34.9486122131,217,-3,S,America/Fortaleza,airport,OurAirports
1,-34.9236,-8.1265,2610,Guararapes - Gilberto Freyre International Airport,Recife,Brazil,REC,SBRF,-8.126489639282227,-34.92359924316406,33,-3,S,America/Fortaleza,airport,OurAirports
1,-25.6979,37.7412,1633,João Paulo II Airport,Ponta Delgada,Portugal,PDL,LPPD,37.7411994934,-25.6979007721,259,-1,E,Atlantic/Azores,airport,OurAirports
1,-22.6056,63.985,16,Keflavik International Airport,Keflavik,Iceland,KEF,BIKF,63.985000610352,-22.605600357056,171,0,N,Atlantic/Reykjavik,airport,OurAirports
1,-17.4902,14.7397,1084,Léopold Sédar Senghor International Airport,Dakar,Senegal,DKR,GOOY,14.739700317382812,-17.49020004272461,85,0,N,Africa/Dakar,airport,OurAirports
1,-16.7745,32.6979,4091,Madeira Airport,Funchal,Portugal,FNC,LPMA,32.697899,-16.7745,192,0,E,Europe/Lisbon,airport,OurAirports
1,-16.6522,13.338,1050,Banjul International Airport,Banjul,Gambia,BJL,GBYD,13.338000297546387,-16.65220069885254,95,0,N,Africa/Banjul,airport,OurAirports
1,-16.5725,28.0445,1056,Tenerife South Airport,Tenerife,Spain,TFS,GCTS,28.044500351,-16.5725002289,209,0,E,Atlantic/Canary,airport,OurAirports
1,-16.3415,28.4827,1057,Tenerife Norte Airport,Tenerife,Spain,TFN,GCXO,28.4827003479,-16.3414993286,2076,0,E,Atlantic/Canary,airport,OurAirports
1,-15.3866,27.9319,1054,Gran Canaria Airport,Gran Canaria,Spain,LPA,GCLP,27.931900024414062,-15.38659954071045,78,0,E,Atlantic/Canary,airport,OurAirports
1,-13.612,9.5769,4162,Conakry International Airport,Conakry,Guinea,CKY,GUCY,9.57689,-13.612,72,0,N,Africa/Conakry,airport,OurAirports
1,-13.6052,28.9455,1055,Lanzarote Airport,Arrecife,Spain,ACE,GCRR,28.945499,-13.6052,46,0,E,Atlantic/Canary,airport,OurAirports
1,-13.1955,8.6164,1059,Lungi International Airport,Freetown,Sierra Leone,FNA,GFLL,8.61644,-13.1955,84,0,N,Africa/Freetown,airport,OurAirports
1,-10.3623,6.2338,1063,Roberts International Airport,Monrovia,Liberia,ROB,GLRB,6.23379,-10.3623,31,0,N,Africa/Monrovia,airport,OurAirports
1,-9.1359,38.7813,1638,Humberto Delgado Airport (Lisbon Portela Airport),Lisbon,Portugal,LIS,LPPT,38.7813,-9.13592,374,0,E,Europe/Lisbon,airport,OurAirports
1,-8.9248,52.702,603,Shannon Airport,Shannon,Ireland,SNN,EINN,52.702,-8.92482,46,0,E,Europe/Dublin,airport,OurAirports
2,-8.6814,41.2481,1636,Francisco de Sá Carneiro Airport,Porto,Portugal,OPO,LPPR,41.2481002808,-8.68138980865,228,0,E,Europe/Lisbon,airport,OurAirports
1,-8.6268,42.2318,1250,Vigo Airport,Vigo,Spain,VGO,LEVX,42.2318000793457,-8.62677001953125,856,1,E,Europe/Madrid,airport,OurAirports
1,-8.4911,51.8413,596,Cork Airport,Cork,Ireland,ORK,EICK,51.84130096435547,-8.491109848022461,502,0,E,Europe/Dublin,airport,OurAirports
1,-8.4151,42.8963,1243,Santiago de Compostela Airport,Santiago,Spain,SCQ,LEST,42.89630126953125,-8.415140151977539,1213,1,E,Europe/Madrid,airport,OurAirports
1,-8.3773,43.3021,1220,A Coruña Airport,La Coruna,Spain,LCG,LECO,43.302101,-8.37726,326,1,E,Europe/Madrid,airport,OurAirports
1,-8.0363,31.6069,1075,Menara Airport,Marrakech,Morocco,RAK,GMMX,31.606899261499997,-8.03629970551,1545,0,N,Africa/Casablanca,airport,OurAirports
1,-7.9659,37.0144,1626,Faro Airport,Faro,Portugal,FAO,LPFR,37.0144004822,-7.96590995789,24,0,E,Europe/Lisbon,airport,OurAirports
1,-7.9499,12.5335,1044,Modibo Keita International Airport,Bamako,Mali,BKO,GABS,12.5335,-7.94994,1247,0,N,Africa/Bamako,airport,OurAirports
1,-7.59,33.3675,1074,Mohammed V International Airport,Casablanca,Morocco,CMN,GMMN,33.36750030517578,-7.589970111846924,656,0,N,Africa/Casablanca,airport,OurAirports
1,-6.7515,34.0515,1072,Rabat-Salé Airport,Rabat,Morocco,RBA,GMME,34.051498,-6.75152,276,0,N,Africa/Casablanca,airport,OurAirports
1,-6.2701,53.4213,599,Dublin Airport,Dublin,Ireland,DUB,EIDW,53.421299,-6.27007,242,0,E,Europe/Dublin,airport,OurAirports
1,-6.2158,54.6575,465,Belfast International Airport,Belfast,United Kingdom,BFS,EGAA,54.6575012207,-6.2158298492399995,268,0,E,Europe/London,airport,OurAirports
1,-6.0601,36.7446,1226,Jerez Airport,Jerez,Spain,XRY,LEJR,36.744598388671875,-6.060110092163086,93,1,E,Europe/Madrid,airport,OurAirports
1,-5.8931,37.418,1253,Sevilla Airport,Sevilla,Spain,SVQ,LEZL,37.417999267578125,-5.8931097984313965,112,1,E,Europe/Madrid,airport,OurAirports
1,-5.8725,54.6181,467,George Best Belfast City Airport,Belfast,United Kingdom,BHD,EGAC,54.618099212646484,-5.872499942779541,15,0,E,Europe/London,airport,OurAirports
1,-5.6864,55.4372,5563,Campbeltown Airport,Campbeltown,United Kingdom,CAL,EGEC,55.437198638916016,-5.686389923095703,42,0,E,Europe/London,airport,OurAirports
1,-4.4991,36.6749,1230,Málaga Airport,Malaga,Spain,AGP,LEMG,36.67490005493164,-4.499110221862793,53,1,E,Europe/Madrid,airport,OurAirports
1,-4.4331,55.8719,534,Glasgow International Airport,Glasgow,United Kingdom,GLA,EGPF,55.8718986511,-4.43306016922,26,0,E,Europe/London,airport,OurAirports
1,-3.9263,5.2614,253,Port Bouet Airport,Abidjan,Cote d'Ivoire,ABJ,DIAP,5.261390209197998,-3.9262900352478027,21,0,N,Africa/Abidjan,airport,OurAirports
1,-3.7774,37.1887,1223,Federico Garcia Lorca Airport,Granada,Spain,GRX,LEGR,37.18870162963867,-3.777359962463379,1860,1,E,Europe/Madrid,airport,OurAirports
1,-3.5668,40.4936,NA,NA,NA,NA,NA,NA,NA,NA,NA,NA,NA,NA,NA,NA
1,-3.3725,55.95,535,Edinburgh Airport,Edinburgh,United Kingdom,EDI,EGPH,55.95000076293945,-3.372499942779541,135,0,E,Europe/London,airport,OurAirports
1,-3.3433,51.3967,488,Cardiff International Airport,Cardiff,United Kingdom,CWL,EGFF,51.39670181274414,-3.343329906463623,220,0,E,Europe/London,airport,OurAirports
1,-2.9106,43.3011,1216,Bilbao Airport,Bilbao,Spain,BIO,LEBB,43.30110168457031,-2.9106099605560303,138,1,E,Europe/Madrid,airport,OurAirports
1,-2.8497,53.3336,491,Liverpool John Lennon Airport,Liverpool,United Kingdom,LPL,EGGP,53.33359909057617,-2.849720001220703,80,0,E,Europe/London,airport,OurAirports
1,-2.7191,51.3827,490,Bristol Airport,Bristol,United Kingdom,BRS,EGGD,51.382702,-2.71909,622,0,E,Europe/London,airport,OurAirports
1,-2.275,53.3537,478,Manchester Airport,Manchester,United Kingdom,MAN,EGCC,53.35369873046875,-2.2749500274658203,257,0,E,Europe/London,airport,OurAirports
1,-2.1978,57.2019,532,Aberdeen Dyce Airport,Aberdeen,United Kingdom,ABZ,EGPD,57.201900482177734,-2.197779893875122,215,0,E,Europe/London,airport,OurAirports
1,-1.748,52.4539,469,Birmingham International Airport,Birmingham,United Kingdom,BHX,EGBB,52.453899383499994,-1.74802994728,327,0,E,Europe/London,airport,OurAirports
1,-1.6917,55.0375,521,Newcastle Airport,Newcastle,United Kingdom,NCL,EGNT,55.037498474121094,-1.6916699409484863,266,0,E,Europe/London,airport,OurAirports
1,-1.6606,53.8659,517,Leeds Bradford Airport,Leeds,United Kingdom,LBA,EGNM,53.86589813232422,-1.6605700254440308,681,0,E,Europe/London,airport,OurAirports
1,-1.6107,47.1532,1418,Nantes Atlantique Airport,Nantes,France,NTE,LFRS,47.153198242200006,-1.61073005199,90,1,E,Europe/Paris,airport,OurAirports
1,-1.5124,12.3532,246,Ouagadougou Airport,Ouagadougou,Burkina Faso,OUA,DFFD,12.3532,-1.51242,1037,0,N,Africa/Ouagadougou,airport,OurAirports
1,-0.7156,44.8283,1264,Bordeaux-Mérignac Airport,Bordeaux,France,BOD,LFBD,44.828300476100004,-0.715556025505,162,1,E,Europe/Paris,airport,OurAirports
1,-0.5582,38.2822,1212,Alicante International Airport,Alicante,Spain,ALC,LEAL,38.28219985961914,-0.5581560134887695,142,1,E,Europe/Madrid,airport,OurAirports
1,-0.4816,39.4893,1246,Valencia Airport,Valencia,Spain,VLC,LEVC,39.4893,-0.481625,240,1,E,Europe/Madrid,airport,OurAirports
1,-0.4619,51.4706,507,London Heathrow Airport,London,United Kingdom,LHR,EGLL,51.4706,-0.461941,83,0,E,Europe/London,airport,OurAirports
1,-0.1903,51.1481,502,London Gatwick Airport,London,United Kingdom,LGW,EGKK,51.148102,-0.190278,202,0,E,Europe/London,airport,OurAirports
1,-0.1668,5.6052,248,Kotoka International Airport,Accra,Ghana,ACC,DGAA,5.605189800262451,-0.16678600013256073,205,0,N,Africa/Accra,airport,OurAirports
1,0.0553,51.5053,503,London City Airport,London,United Kingdom,LCY,EGLC,51.505299,0.055278,19,0,E,Europe/London,airport,OurAirports
1,0.235,51.885,548,London Stansted Airport,London,United Kingdom,STN,EGSS,51.8849983215,0.234999999404,348,0,E,Europe/London,airport,OurAirports
2,0.6956,51.5714,508,Southend Airport,Southend,United Kingdom,SEN,EGMC,51.5713996887207,0.6955559849739075,49,0,E,Europe/London,airport,OurAirports
1,1.2545,6.1656,298,Lomé-Tokoin Airport,Lome,Togo,LFW,DXXX,6.165609836578369,1.2545100450515747,72,0,N,Africa/Lome,airport,OurAirports
1,1.3638,43.6291,1273,Toulouse-Blagnac Airport,Toulouse,France,TLS,LFBO,43.629101,1.36382,499,1,E,Europe/Paris,airport,OurAirports
1,1.3731,38.8729,1225,Ibiza Airport,Ibiza,Spain,IBZ,LEIB,38.872898101800004,1.3731199502899998,24,1,E,Europe/Madrid,airport,OurAirports
1,2.0785,41.2971,1218,Barcelona International Airport,Barcelona,Spain,BCN,LEBL,41.2971,2.07846,12,1,E,Europe/Madrid,airport,OurAirports
1,2.3594,48.7253,NA,NA,NA,NA,NA,NA,NA,NA,NA,NA,NA,NA,NA,NA
1,2.3844,6.3572,245,Cadjehoun Airport,Cotonou,Benin,COO,DBBB,6.357230186462402,2.384350061416626,19,1,N,Africa/Porto-Novo,airport,OurAirports
1,2.55,49.0128,1382,Charles de Gaulle International Airport,Paris,France,CDG,LFPG,49.012798,2.55,392,1,E,Europe/Paris,airport,OurAirports
2,2.7388,39.5517,3998,Palma De Mallorca Airport,Palma de Mallorca,Spain,PMI,LEPA,39.551700592,2.73881006241,27,1,E,Europe/Madrid,airport,OurAirports
1,3.2154,36.691,210,Houari Boumediene Airport,Algier,Algeria,ALG,DAAG,36.691001892089844,3.215409994125366,82,1,N,Africa/Algiers,airport,OurAirports
1,3.3212,6.5774,273,Murtala Muhammed International Airport,Lagos,Nigeria,LOS,DNMM,6.5773701667785645,3.321160078048706,135,1,N,Africa/Lagos,airport,OurAirports
1,3.963,43.5762,1359,Montpellier-Méditerranée Airport,Montpellier,France,MPL,LFMT,43.57619857788086,3.96301007270813,17,1,E,Europe/Paris,airport,OurAirports
1,4.4372,51.9569,591,Rotterdam The Hague Airport,Rotterdam,Netherlands,RTM,EHRD,51.956902,4.43722,-15,1,E,Europe/Amsterdam,airport,OurAirports
1,4.4844,50.9014,302,Brussels Airport,Brussels,Belgium,BRU,EBBR,50.901401519800004,4.48443984985,184,1,E,Europe/Brussels,airport,OurAirports
1,4.7639,52.3086,580,Amsterdam Airport Schiphol,Amsterdam,Netherlands,AMS,EHAM,52.308601,4.76389,-11,1,E,Europe/Amsterdam,airport,OurAirports
1,5.0908,45.7264,NA,NA,NA,NA,NA,NA,NA,NA,NA,NA,NA,NA,NA,NA
1,5.2181,60.2934,636,Bergen Airport Flesland,Bergen,Norway,BGO,ENBR,60.29339981,5.218140125,170,1,E,Europe/Oslo,airport,OurAirports
1,5.2214,43.4393,1353,Marseille Provence Airport,Marseille,France,MRS,LFML,43.439271922,5.22142410278,74,1,E,Europe/Paris,airport,OurAirports
1,5.3745,51.4501,585,Eindhoven Airport,Eindhoven,Netherlands,EIN,EHEH,51.4500999451,5.37452983856,74,1,E,Europe/Amsterdam,airport,OurAirports
1,5.6378,58.8767,666,Stavanger Airport Sola,Stavanger,Norway,SVG,ENZV,58.876701354,5.6377801895,29,1,E,Europe/Oslo,airport,OurAirports
1,6.109,46.2381,1665,Geneva Cointrin International Airport,Geneva,Switzerland,GVA,LSGG,46.23809814453125,6.108950138092041,1411,1,E,Europe/Paris,airport,OurAirports
1,6.2115,49.6266,NA,NA,NA,NA,NA,NA,NA,NA,NA,NA,NA,NA,NA,NA
2,6.7668,51.2895,345,Düsseldorf Airport,Duesseldorf,Germany,DUS,EDDL,51.289501,6.76678,147,1,E,Europe/Berlin,airport,OurAirports
1,6.9496,5.0155,275,Port Harcourt International Airport,Port Hartcourt,Nigeria,PHC,DNPO,5.0154900550842285,6.94959020614624,87,1,N,Africa/Lagos,airport,OurAirports
1,7.1427,50.8659,344,Cologne Bonn Airport,Cologne,Germany,CGN,EDDK,50.8658981323,7.1427397728,302,1,E,Europe/Berlin,airport,OurAirports
1,7.2159,43.6584,1354,Nice-Côte d'Azur Airport,Nice,France,NCE,LFMN,43.6584014893,7.215869903560001,12,1,E,Europe/Paris,airport,OurAirports
1,7.2632,9.0068,260,Nnamdi Azikiwe International Airport,Abuja,Nigeria,ABV,DNAA,9.0067901611328125,7.263169765472412,1123,1,N,Africa/Lagos,airport,OurAirports
1,7.5299,47.5896,NA,NA,NA,NA,NA,NA,NA,NA,NA,NA,NA,NA,NA,NA
1,7.6282,48.5383,1435,Strasbourg Airport,Strasbourg,France,SXB,LFST,48.538299560546875,7.628230094909668,505,1,E,Europe/Paris,airport,OurAirports
1,7.6496,45.2008,1526,Turin Airport,Torino,Italy,TRN,LIMF,45.200802,7.64963,989,1,E,Europe/Rome,airport,OurAirports
1,8.5431,50.0264,NA,NA,NA,NA,NA,NA,NA,NA,NA,NA,NA,NA,NA,NA
1,8.5492,47.4647,1678,Zürich Airport,Zurich,Switzerland,ZRH,LSZH,47.464699,8.54917,1416,1,E,Europe/Zurich,airport,OurAirports
1,8.7281,45.6306,1524,Malpensa International Airport,Milano,Italy,MXP,LIMC,45.6306,8.72811,768,1,E,Europe/Rome,airport,OurAirports
1,8.7867,53.0475,353,Bremen Airport,Bremen,Germany,BRE,EDDW,53.0475006104,8.78666973114,14,1,E,Europe/Berlin,airport,OurAirports
1,8.8375,44.4133,1528,Genoa Cristoforo Colombo Airport,Genoa,Italy,GOA,LIMJ,44.4133,8.8375,13,1,E,Europe/Rome,airport,OurAirports
1,9.1518,55.7403,608,Billund Airport,Billund,Denmark,BLL,EKBI,55.7402992249,9.15178012848,247,1,E,Europe/Copenhagen,airport,OurAirports
1,9.222,48.6899,350,Stuttgart Airport,Stuttgart,Germany,STR,EDDS,48.689899444599995,9.22196006775,1276,1,E,Europe/Berlin,airport,OurAirports
1,9.2767,45.4451,1529,Milano Linate Airport,Milan,Italy,LIN,LIML,45.445099,9.27674,353,1,E,Europe/Rome,airport,OurAirports
1,9.6851,52.4611,352,Hannover Airport,Hannover,Germany,HAJ,EDDV,52.461101532,9.685079574580001,183,1,E,Europe/Berlin,airport,OurAirports
1,9.7195,4.0061,897,Douala International Airport,Douala,Cameroon,DLA,FKKD,4.0060801506,9.719479560849999,33,1,N,Africa/Douala,airport,OurAirports
1,9.8492,57.0928,628,Aalborg Airport,Aalborg,Denmark,AAL,EKYT,57.0927589138,9.84924316406,10,1,E,Europe/Copenhagen,airport,OurAirports
1,9.9882,53.6304,342,Hamburg Airport,Hamburg,Germany,HAM,EDDH,53.630401611328,9.9882297515869,53,1,E,Europe/Berlin,airport,OurAirports
1,10.2272,36.851,287,Tunis Carthage International Airport,Tunis,Tunisia,TUN,DTTA,36.85100173950195,10.22719955444336,22,1,E,Africa/Tunis,airport,OurAirports
1,10.2586,59.1867,664,"Sandefjord Airport, Torp",Sandefjord,Norway,TRF,ENTO,59.1866989136,10.258600235,286,1,E,Europe/Oslo,airport,OurAirports
1,10.3927,43.6839,1562,Pisa International Airport,Pisa,Italy,PSA,LIRP,43.683899,10.3927,6,1,E,Europe/Rome,airport,OurAirports
1,10.8885,45.3957,1550,Verona Villafranca Airport,Villafranca,Italy,VRN,LIPX,45.395699,10.8885,239,1,E,Europe/Rome,airport,OurAirports
1,11.0669,49.4987,NA,NA,NA,NA,NA,NA,NA,NA,NA,NA,NA,NA,NA,NA
1,11.1004,60.1939,NA,NA,NA,NA,NA,NA,NA,NA,NA,NA,NA,NA,NA,NA
1,11.2051,43.81,1563,Peretola Airport,Florence,Italy,FLR,LIRQ,43.810001,11.2051,142,1,E,Europe/Rome,airport,OurAirports
1,11.2887,44.5354,1538,Bologna Guglielmo Marconi Airport,Bologna,Italy,BLQ,LIPE,44.5354,11.2887,123,1,E,Europe/Rome,airport,OurAirports
1,11.344,47.2602,1610,Innsbruck Airport,Innsbruck,Austria,INN,LOWI,47.260201,11.344,1907,1,E,Europe/Vienna,airport,OurAirports
1,11.5533,3.7226,4161,Yaoundé Nsimalen International Airport,Yaounde,Cameroon,NSI,FKYS,3.722559928894043,11.553299903869629,2278,1,N,Africa/Douala,airport,OurAirports
1,11.7861,48.3538,346,Munich Airport,Munich,Germany,MUC,EDDM,48.353802,11.7861,1487,1,E,Europe/Berlin,airport,OurAirports
1,12.2416,51.4324,NA,NA,NA,NA,NA,NA,NA,NA,NA,NA,NA,NA,NA,NA
1,12.2508,41.8045,NA,NA,NA,NA,NA,NA,NA,NA,NA,NA,NA,NA,NA,NA
1,12.2798,57.6628,687,Gothenburg-Landvetter Airport,Gothenborg,Sweden,GOT,ESGG,57.662799835205,12.279800415039,506,1,E,Europe/Stockholm,airport,OurAirports
1,12.3519,45.5053,1551,Venice Marco Polo Airport,Venice,Italy,VCE,LIPZ,45.505299,12.3519,7,1,E,Europe/Rome,airport,OurAirports
1,12.656,55.6179,609,Copenhagen Kastrup Airport,Copenhagen,Denmark,CPH,EKCH,55.617900848389,12.656000137329,17,1,E,Europe/Copenhagen,airport,OurAirports
1,13.0043,47.7933,1612,Salzburg Airport,Salzburg,Austria,SZG,LOWS,47.793300628699996,13.0043001175,1411,1,E,Europe/Vienna,airport,OurAirports
1,13.091,38.176,1512,Falcone–Borsellino Airport,Palermo,Italy,PMO,LICJ,38.175999,13.091,65,1,E,Europe/Rome,airport,OurAirports
1,13.2312,-8.8584,951,Quatro de Fevereiro Airport,Luanda,Angola,LAD,FNLU,-8.85837,13.2312,243,1,N,Africa/Luanda,airport,OurAirports
1,13.2877,52.5597,351,Berlin-Tegel Airport,Berlin,Germany,TXL,EDDT,52.5597,13.2877,122,1,E,Europe/Berlin,airport,OurAirports
1,13.4722,45.8275,1545,Trieste–Friuli Venezia Giulia Airport,Ronchi De Legionari,Italy,TRS,LIPQ,45.827499,13.4722,39,1,E,Europe/Rome,airport,OurAirports
1,13.5225,52.38,337,Berlin-Schönefeld Airport,Berlin,Germany,SXF,EDDB,52.380001,13.5225,157,1,E,Europe/Berlin,airport,OurAirports
1,13.7672,51.1328,338,Dresden Airport,Dresden,Germany,DRS,EDDC,51.1328010559082,13.767200469970703,755,1,E,Europe/Berlin,airport,OurAirports
1,14.26,50.1008,1587,Václav Havel Airport Prague,Prague,Czech Republic,PRG,LKPR,50.1008,14.26,1247,1,E,Europe/Prague,airport,OurAirports
2,14.2908,40.886,1561,Naples International Airport,Naples,Italy,NAP,LIRN,40.886002,14.2908,294,1,E,Europe/Rome,airport,OurAirports
1,14.4576,46.2237,1569,Ljubljana Jože Pučnik Airport,Ljubljana,Slovenia,LJU,LJLJ,46.223701,14.4576,1273,1,E,Europe/Ljubljana,airport,OurAirports
1,14.4775,35.8575,1606,Malta International Airport,Malta,Malta,MLA,LMML,35.857498,14.4775,300,1,E,Europe/Malta,airport,OurAirports
1,15.0664,37.4668,1509,Catania-Fontanarossa Airport,Catania,Italy,CTA,LICC,37.466801,15.0664,39,1,E,Europe/Rome,airport,OurAirports
1,15.4396,46.9911,1609,Graz Airport,Graz,Austria,GRZ,LOWG,46.9911003112793,15.439599990844727,1115,1,E,Europe/Vienna,airport,OurAirports
1,15.4446,-4.3858,NA,NA,NA,NA,NA,NA,NA,NA,NA,NA,NA,NA,NA,NA
1,16.0688,45.7429,1208,Zagreb Airport,Zagreb,Croatia,ZAG,LDZA,45.7429008484,16.0687999725,353,1,E,Europe/Zagreb,airport,OurAirports
1,16.2423,38.9054,1508,Lamezia Terme Airport,Lamezia,Italy,SUF,LICA,38.905399,16.2423,39,1,E,Europe/Rome,airport,OurAirports
1,16.298,43.5389,1206,Split Airport,Split,Croatia,SPU,LDSP,43.53889846801758,16.29800033569336,79,1,E,Europe/Zagreb,airport,OurAirports
1,16.5697,48.1103,1613,Vienna International Airport,Vienna,Austria,VIE,LOWW,48.110298156738,16.569700241089,600,1,E,Europe/Vienna,airport,OurAirports
1,16.6781,68.4913,641,"Harstad/Narvik Airport, Evenes",Harstad/Narvik,Norway,EVE,ENEV,68.491302490234,16.678100585938,84,1,E,Europe/Oslo,airport,OurAirports
1,16.7606,41.1389,1501,Bari Karol Wojtyła Airport,Bari,Italy,BRI,LIBD,41.138901,16.760599,177,1,E,Europe/Rome,airport,OurAirports
1,16.8263,52.421,674,Poznań-Ławica Airport,Poznan,Poland,POZ,EPPO,52.421001434299995,16.8262996674,308,1,E,Europe/Warsaw,airport,OurAirports
1,16.8858,51.1027,680,Copernicus Wrocław Airport,Wroclaw,Poland,WRO,EPWR,51.1026992798,16.885799408,404,1,E,Europe/Warsaw,airport,OurAirports
1,17.4709,-22.4799,4105,Hosea Kutako International Airport,Windhoek,Namibia,WDH,FYWH,-22.4799,17.4709,5640,1,S,Africa/Windhoek,airport,OurAirports
1,17.9186,59.6519,737,Stockholm-Arlanda Airport,Stockholm,Sweden,ARN,ESSA,59.651901245117,17.918600082397,137,1,E,Europe/Stockholm,airport,OurAirports
1,17.9417,59.3544,738,Stockholm-Bromma Airport,Stockholm,Sweden,BMA,ESSB,59.354400634765625,17.941699981689453,47,1,E,Europe/Stockholm,airport,OurAirports
1,18.2682,42.5614,1200,Dubrovnik Airport,Dubrovnik,Croatia,DBV,LDDU,42.5614013671875,18.268199920654297,527,1,E,Europe/Zagreb,airport,OurAirports
1,18.3315,43.8246,1646,Sarajevo International Airport,Sarajevo,Bosnia and Herzegovina,SJJ,LQSA,43.82460021972656,18.331499099731445,1708,1,E,Europe/Sarajevo,airport,OurAirports
1,18.4662,54.3776,668,Gdańsk Lech Wałęsa Airport,Gdansk,Poland,GDN,EPGD,54.377601623535156,18.46619987487793,489,1,E,Europe/Warsaw,airport,OurAirports
1,18.6017,-33.9648,797,Cape Town International Airport,Cape Town,South Africa,CPT,FACT,-33.9648017883,18.6016998291,151,2,U,Africa/Johannesburg,airport,OurAirports
1,19.08,50.4743,671,Katowice International Airport,Katowice,Poland,KTW,EPKT,50.4743,19.08,995,1,E,Europe/Warsaw,airport,OurAirports
1,19.2519,42.3594,1741,Podgorica Airport,Podgorica,Montenegro,TGD,LYPG,42.359402,19.2519,141,1,E,Europe/Podgorica,airport,OurAirports
1,19.2556,47.4369,NA,NA,NA,NA,NA,NA,NA,NA,NA,NA,NA,NA,NA,NA
1,19.7206,41.4147,1190,Tirana International Airport Mother Teresa,Tirana,Albania,TIA,LATI,41.4146995544,19.7206001282,126,1,E,Europe/Tirane,airport,OurAirports
1,19.7848,50.0777,669,Kraków John Paul II International Airport,Krakow,Poland,KRK,EPKK,50.077702,19.7848,791,1,E,Europe/Warsaw,airport,OurAirports
1,20.2828,63.7918,728,Umeå Airport,Umea,Sweden,UME,ESNU,63.791801452637,20.282800674438,24,1,E,Europe/Stockholm,airport,OurAirports
1,20.3091,44.8184,1739,Belgrade Nikola Tesla Airport,Belgrade,Serbia,BEG,LYBE,44.8184013367,20.3090991974,335,1,E,Europe/Belgrade,airport,OurAirports
1,20.9671,52.1657,679,Warsaw Chopin Airport,Warsaw,Poland,WAW,EPWA,52.1656990051,20.967100143399996,362,1,E,Europe/Warsaw,airport,OurAirports
1,21.0358,42.5728,1742,Priština International Airport,Pristina,Serbia,PRN,BKPR,42.5728,21.035801,1789,1,E,Europe/Belgrade,airport,OurAirports
1,21.3379,45.8099,1663,Timişoara Traian Vuia Airport,Timisoara,Romania,TSR,LRTR,45.809898376464844,21.337900161743164,348,2,E,Europe/Bucharest,airport,OurAirports
1,21.6214,41.9616,1737,Skopje Alexander the Great Airport,Skopje,Macedonia,SKP,LWSK,41.961601,21.621401,781,1,E,Europe/Skopje,airport,OurAirports
1,22.019,50.11,675,Rzeszów-Jasionka Airport,Rzeszow,Poland,RZE,EPRZ,50.1100006104,22.0189990997,675,1,E,Europe/Warsaw,airport,OurAirports
1,22.9709,40.5197,1486,Thessaloniki Macedonia International Airport,Thessaloniki,Greece,SKG,LGTS,40.51969909667969,22.97089958190918,22,2,E,Europe/Athens,airport,OurAirports
2,23.4114,42.6967,1194,Sofia Airport,Sofia,Bulgaria,SOF,LBSF,42.696693420410156,23.411436080932617,1742,2,E,Europe/Sofia,airport,OurAirports
1,23.6862,46.7852,1652,Cluj-Napoca International Airport,Cluj-napoca,Romania,CLJ,LRCL,46.78519821166992,23.686199188232422,1036,2,E,Europe/Bucharest,airport,OurAirports
1,23.9445,37.9364,3941,Eleftherios Venizelos International Airport,Athens,Greece,ATH,LGAV,37.9364013672,23.9444999695,308,2,E,Europe/Athens,airport,OurAirports
1,23.9561,49.8125,2945,Lviv International Airport,Lvov,Ukraine,LWO,UKLL,49.8125,23.956100463867188,1071,2,E,Europe/Kiev,airport,OurAirports
1,23.9711,56.9236,3953,Riga International Airport,Riga,Latvia,RIX,EVRA,56.92359924316406,23.971099853515625,36,2,E,Europe/Riga,airport,OurAirports
1,24.8328,59.4133,415,Lennart Meri Tallinn Airport,Tallinn-ulemiste International,Estonia,TLL,EETN,59.41329956049999,24.832799911499997,131,2,E,Europe/Tallinn,airport,OurAirports
1,24.9633,60.3172,421,Helsinki Vantaa Airport,Helsinki,Finland,HEL,EFHK,60.317199707031,24.963300704956,179,2,E,Europe/Helsinki,airport,OurAirports
1,25.1803,35.3397,1452,Heraklion International Nikos Kazantzakis Airport,Heraklion,Greece,HER,LGIR,35.3396987915,25.180299758900002,115,2,E,Europe/Athens,airport,OurAirports
1,25.2858,54.6341,3959,Vilnius International Airport,Vilnius,Lithuania,VNO,EYVI,54.634102,25.285801,648,2,E,Europe/Vilnius,airport,OurAirports
1,25.3481,37.4351,1468,Mikonos Airport,Mykonos,Greece,JMK,LGMK,37.43510055541992,25.348100662231445,405,2,E,Europe/Athens,airport,OurAirports
1,25.4793,36.3992,1479,Santorini Airport,Thira,Greece,JTR,LGSR,36.399200439453125,25.479299545288086,127,2,E,Europe/Athens,airport,OurAirports
1,25.9182,-24.5552,881,Sir Seretse Khama International Airport,Gaberone,Botswana,GBE,FBSK,-24.555201,25.9182,3299,2,U,Africa/Gaborone,airport,OurAirports
1,26.1022,44.5722,NA,NA,NA,NA,NA,NA,NA,NA,NA,NA,NA,NA,NA,NA
1,27.157,38.2924,1706,Adnan Menderes International Airport,Izmir,Turkey,ADB,LTBJ,38.2924003601,27.156999588,412,3,E,Europe/Istanbul,airport,OurAirports
1,28.0307,53.8825,2954,Minsk National Airport,Minsk 2,Belarus,MSQ,UMMS,53.882499694824,28.030700683594,670,3,E,Europe/Minsk,airport,OurAirports
1,28.0862,36.4054,1472,Diagoras Airport,Rhodos,Greece,RHO,LGRP,36.405399322509766,28.086200714111328,17,2,E,Europe/Athens,airport,OurAirports
1,28.246,-26.1392,813,OR Tambo International Airport,Johannesburg,South Africa,JNB,FAOR,-26.1392,28.246,5558,2,U,Africa/Johannesburg,airport,OurAirports
1,28.4526,-15.3308,907,Kenneth Kaunda International Airport Lusaka,Lusaka,Zambia,LUN,FLLS,-15.3308000565,28.4526004791,3779,2,U,Africa/Lusaka,airport,OurAirports
2,28.8146,40.9769,1701,Atatürk International Airport,Istanbul,Turkey,ISL,LTBA,40.976898,28.8146,163,3,E,Europe/Istanbul,airport,OurAirports
1,28.931,46.9277,1735,Chişinău International Airport,Chisinau,Moldova,KIV,LUKK,46.92770004272461,28.930999755859375,399,2,E,Europe/Chisinau,airport,OurAirports
1,29.3092,40.8986,4317,Sabiha Gökçen International Airport,Istanbul,Turkey,SAW,LTFJ,40.898601532,29.3092002869,312,3,E,Europe/Istanbul,airport,OurAirports
1,29.6964,30.9177,3410,Borg El Arab International Airport,Alexandria,Egypt,HBE,HEBA,30.917699813842773,29.696399688720703,177,2,U,Africa/Cairo,airport,OurAirports
1,30.1395,-1.9686,1165,Kigali International Airport,Kigali,Rwanda,KGL,HRYR,-1.96863,30.1395,4859,2,U,Africa/Kigali,airport,OurAirports
1,30.2625,59.8003,2948,Pulkovo Airport,St. Petersburg,Russia,LED,ULLI,59.80030059814453,30.262500762939453,78,3,N,Europe/Moscow,airport,OurAirports
1,30.4497,50.4017,NA,NA,NA,NA,NA,NA,NA,NA,NA,NA,NA,NA,NA,NA
1,30.6765,46.4268,2947,Odessa International Airport,Odessa,Ukraine,ODS,UKOO,46.42679977416992,30.67650032043457,172,2,E,Europe/Kiev,airport,OurAirports
1,30.8005,36.8987,1688,Antalya International Airport,Antalya,Turkey,AYT,LTAI,36.898701,30.800501,177,3,E,Europe/Istanbul,airport,OurAirports
1,30.8947,50.345,2939,Boryspil International Airport,Kiev,Ukraine,KBP,UKBB,50.345001220703125,30.894699096679688,427,2,E,Europe/Kiev,airport,OurAirports
1,31.0928,-17.9318,1005,Robert Gabriel Mugabe International Airport,Harare,Zimbabwe,HRE,FVHA,-17.931801,31.0928,4887,2,U,Africa/Harare,airport,OurAirports
1,31.1197,-29.6144,799,King Shaka International Airport,Durban,South Africa,DUR,FALE,-29.6144444444,31.1197222222,295,2,U,Africa/Johannesburg,airport,OurAirports
1,31.4056,30.1219,1128,Cairo International Airport,Cairo,Egypt,CAI,HECA,30.12190055847168,31.40559959411621,382,2,U,Africa/Cairo,airport,OurAirports
1,32.4435,0.0424,1187,Entebbe International Airport,Entebbe,Uganda,EBB,HUEN,0.042386,32.443501,3782,3,U,Africa/Kampala,airport,OurAirports
1,32.5532,15.5895,1175,Khartoum International Airport,Khartoum,Sudan,KRT,HSSS,15.589500427246094,32.553199768066406,1265,3,U,Africa/Khartoum,airport,OurAirports
1,32.9951,40.1281,1682,Esenboğa International Airport,Ankara,Turkey,ESB,LTAC,40.128101348899996,32.995098114,3125,3,E,Europe/Istanbul,airport,OurAirports
1,33.6249,34.8751,1197,Larnaca International Airport,Larnaca,Cyprus,LCA,LCLK,34.875099182128906,33.624900817871094,8,2,E,Asia/Nicosia,airport,OurAirports
1,34.8867,32.0114,1590,Ben Gurion International Airport,Tel-aviv,Israel,TLV,LLBG,32.01139831542969,34.88669967651367,135,2,E,Asia/Jerusalem,airport,OurAirports
1,35.1006,48.3572,2941,Dnipropetrovsk International Airport,Dnepropetrovsk,Ukraine,DNK,UKDD,48.357200622558594,35.10060119628906,481,2,E,Europe/Kiev,airport,OurAirports
1,35.4884,33.8209,2177,Beirut Rafic Hariri International Airport,Beirut,Lebanon,BEY,OLBA,33.820899963378906,35.488399505615234,87,2,E,Asia/Beirut,airport,OurAirports
1,35.9932,31.7226,2170,Queen Alia International Airport,Amman,Jordan,AMM,OJAI,31.7226009369,35.9931983948,2395,2,E,Asia/Amman,airport,OurAirports
1,36.9278,-1.3192,4059,Jomo Kenyatta International Airport,Nairobi,Kenya,NBO,HKJK,-1.31923997402,36.9277992249,5330,3,N,Africa/Nairobi,airport,OurAirports
1,37.0745,-3.4294,1180,Kilimanjaro International Airport,Kilimanjaro,Tanzania,JRO,HTKJ,-3.42940998077,37.0745010376,2932,3,U,Africa/Dar_es_Salaam,airport,OurAirports
1,37.2615,55.5915,2988,Vnukovo International Airport,Moscow,Russia,VKO,UUWW,55.5914993286,37.2615013123,685,3,N,Europe/Moscow,airport,OurAirports
1,37.4146,55.9726,2985,Sheremetyevo International Airport,Moscow,Russia,SVO,UUEE,55.972599,37.4146,622,3,N,Europe/Moscow,airport,OurAirports
1,37.9063,55.4088,4029,Domodedovo International Airport,Moscow,Russia,DME,UUDD,55.40879821777344,37.90629959106445,588,3,N,Europe/Moscow,airport,OurAirports
1,38.7993,8.9779,1107,Addis Ababa Bole International Airport,Addis Ababa,Ethiopia,ADD,HAAB,8.97789001465,38.799301147499996,7630,3,U,Africa/Addis_Ababa,airport,OurAirports
1,38.9107,15.2919,3967,Asmara International Airport,Asmara,Eritrea,ASM,HHAS,15.291899681091309,38.910701751708984,7661,3,U,Africa/Asmera,airport,OurAirports
1,39.1565,21.6796,2072,King Abdulaziz International Airport,Jeddah,Saudi Arabia,JED,OEJN,21.6796,39.156502,48,3,U,Asia/Riyadh,airport,OurAirports
1,39.1705,45.0347,2960,Krasnodar Pashkovsky International Airport,Krasnodar,Russia,KRR,URKK,45.034698486328,39.170501708984,118,3,N,Europe/Moscow,airport,OurAirports
1,39.2026,-6.8781,1177,Julius Nyerere International Airport,Dar Es Salaam,Tanzania,DAR,HTDA,-6.87811,39.202599,182,3,U,Africa/Dar_es_Salaam,airport,OurAirports
1,39.7051,24.5534,2074,Prince Mohammad Bin Abdulaziz Airport,Madinah,Saudi Arabia,MED,OEMA,24.5534,39.705101,2151,3,U,Asia/Riyadh,airport,OurAirports
1,39.9566,43.4499,2965,Sochi International Airport,Sochi,Russia,AER,URSS,43.449902,39.9566,89,3,N,Europe/Moscow,airport,OurAirports
1,41.5997,41.6103,3971,Batumi International Airport,Batumi,Georgia,BUS,UGSB,41.6102981567,41.5997009277,105,4,N,Asia/Tbilisi,airport,OurAirports
1,43.6366,43.5129,6123,Nalchik Airport,Nalchik,Russia,NAL,URMN,43.512901306152344,43.636600494384766,1461,3,N,Europe/Moscow,airport,OurAirports
1,43.9632,36.2376,3989,Erbil International Airport,Erbil,Iraq,EBL,ORER,36.23759841918945,43.963199615478516,1341,3,U,Asia/Baghdad,airport,OurAirports
1,44.2197,15.4763,3980,Sana'a International Airport,Sanaa,Yemen,SAH,OYSN,15.476300239562988,44.21969985961914,7216,3,U,Asia/Aden,airport,OurAirports
1,44.2346,33.2625,4130,Baghdad International Airport,Baghdad,Iraq,BGW,ORBI,33.262500762900004,44.2346000671,114,3,U,Asia/Baghdad,airport,OurAirports
1,44.3959,40.1473,3964,Zvartnots International Airport,Yerevan,Armenia,EVN,UDYZ,40.1473007202,44.3959007263,2838,4,E,Asia/Yerevan,airport,OurAirports
1,44.4043,31.9899,7490,Al Najaf International Airport,Najaf,Iraq,NJF,ORNI,31.989853,44.404317,103,3,U,Asia/Baghdad,airport,OurAirports
1,44.9547,41.6692,3973,Tbilisi International Airport,Tbilisi,Georgia,TBS,UGTB,41.6692008972,44.95470047,1624,4,N,Asia/Tbilisi,airport,OurAirports
1,46.6988,24.9576,2082,King Khaled International Airport,Riyadh,Saudi Arabia,RUH,OERK,24.957599639892578,46.69879913330078,2049,3,U,Asia/Riyadh,airport,OurAirports
1,47.4788,-18.7969,918,Ivato Airport,Antananarivo,Madagascar,TNR,FMMI,-18.7969,47.478802,4198,3,U,Indian/Antananarivo,airport,OurAirports
1,47.9689,29.2266,2176,Kuwait International Airport,Kuwait,Kuwait,KWI,OKBK,29.226600646972656,47.96889877319336,206,3,U,Asia/Kuwait,airport,OurAirports
1,49.7979,26.4712,2064,King Fahd International Airport,Dammam,Saudi Arabia,DMM,OEDF,26.471200942993164,49.79790115356445,72,3,U,Asia/Riyadh,airport,OurAirports
1,50.0467,40.4675,2922,Heydar Aliyev International Airport,Baku,Azerbaijan,GYD,UBBB,40.467498779296875,50.04669952392578,10,4,E,Asia/Baku,airport,OurAirports
1,50.6336,26.2708,2057,Bahrain International Airport,Bahrain,Bahrain,BAH,OBBI,26.27079963684082,50.63359832763672,6,3,U,Asia/Bahrain,airport,OurAirports
1,51.1522,35.4161,4330,Imam Khomeini International Airport,Tehran,Iran,IKA,OIIE,35.416099548339844,51.152198791503906,3305,3.5,E,Asia/Tehran,airport,OurAirports
1,51.5651,25.2611,2241,Doha International Airport,Doha,Qatar,DIA,OTBD,25.261101,51.565102,35,3,U,Asia/Qatar,airport,OurAirports
1,54.6511,24.433,2179,Abu Dhabi International Airport,Abu Dhabi,United Arab Emirates,AUH,OMAA,24.433000564575195,54.651100158691406,88,4,U,Asia/Dubai,airport,OurAirports
1,55.1614,24.8967,NA,NA,NA,NA,NA,NA,NA,NA,NA,NA,NA,NA,NA,NA
1,55.3644,25.2528,2188,Dubai International Airport,Dubai,United Arab Emirates,DXB,OMDB,25.2527999878,55.3643989563,62,4,U,Asia/Dubai,airport,OurAirports
1,55.5218,-4.6743,994,Seychelles International Airport,Mahe,Seychelles,SEZ,FSIA,-4.67434,55.521801,10,4,U,Indian/Mahe,airport,OurAirports
1,57.6836,-20.4302,893,Sir Seewoosagur Ramgoolam International Airport,Plaisance,Mauritius,MRU,FIMP,-20.430201,57.683601,186,4,N,Indian/Mauritius,airport,OurAirports
1,58.2844,23.5933,2194,Muscat International Airport,Muscat,Oman,MCT,OOMS,23.593299865722656,58.284400939941406,48,4,U,Asia/Muscat,airport,OurAirports
1,60.8027,56.7431,2975,Koltsovo Airport,Yekaterinburg,Russia,SVX,USSS,56.743099212646,60.802700042725,764,5,N,Asia/Yekaterinburg,airport,OurAirports
1,67.1608,24.9065,2206,Jinnah International Airport,Karachi,Pakistan,KHI,OPKC,24.9065,67.160797,100,5,N,Asia/Karachi,airport,OurAirports
1,69.2123,34.5659,2050,Hamid Karzai International Airport,Kabul,Afghanistan,KBL,OAKB,34.565899,69.212303,5877,4.5,U,Asia/Kabul,airport,OurAirports
1,69.2812,41.2579,2983,Tashkent International Airport,Tashkent,Uzbekistan,TAS,UTTT,41.257900238,69.2811965942,1417,5,U,Asia/Samarkand,airport,OurAirports
1,72.6347,23.0772,2994,Sardar Vallabhbhai Patel International Airport,Ahmedabad,India,AMD,VAAH,23.0771999359,72.63469696039999,189,5.5,N,Asia/Calcutta,airport,OurAirports
1,72.8679,19.0887,2997,Chhatrapati Shivaji International Airport,Mumbai,India,BOM,VABB,19.0886993408,72.8678970337,39,5.5,N,Asia/Calcutta,airport,OurAirports
1,73.0992,33.6167,2223,Benazir Bhutto International Airport,Islamabad,Pakistan,NA,OPRN,33.616699,73.099197,1668,5,N,Asia/Karachi,airport,OurAirports
1,73.2263,22.3362,3001,Vadodara Airport,Baroda,India,BDQ,VABO,22.336201,73.226303,129,5.5,N,Asia/Calcutta,airport,OurAirports
1,73.5291,4.1918,3156,Malé International Airport,Male,Maldives,MLE,VRMM,4.191830158233643,73.52909851074219,6,5,U,Indian/Maldives,airport,OurAirports
1,73.8314,15.3808,3007,Dabolim Airport,Goa,India,GOI,VAGO,15.3808002472,73.8313980103,150,5.5,N,Asia/Calcutta,airport,OurAirports
1,73.9197,18.5821,3017,Pune Airport,Pune,India,PNQ,VAPO,18.58209991455078,73.9197006225586,1942,5.5,N,Asia/Calcutta,airport,OurAirports
1,74.4036,31.5216,2207,Alama Iqbal International Airport,Lahore,Pakistan,LHE,OPLA,31.5216007232666,74.40360260009766,712,5,N,Asia/Karachi,airport,OurAirports
1,74.4776,43.0613,2912,Manas International Airport,Bishkek,Kyrgyzstan,FRU,UAFM,43.0612983704,74.4776000977,2058,6,U,Asia/Bishkek,airport,OurAirports
1,74.7973,31.7096,3081,Sri Guru Ram Dass Jee International Airport,Amritsar,India,ATQ,VIAR,31.7096004486,74.7973022461,756,5.5,N,Asia/Calcutta,airport,OurAirports
1,75.8122,26.8242,3098,Jaipur International Airport,Jaipur,India,JAI,VIJP,26.8242,75.812202,1263,5.5,N,Asia/Calcutta,airport,OurAirports
1,75.9553,11.1368,3137,Calicut International Airport,Calicut,India,CCJ,VOCL,11.1367998123,75.95529937740001,342,5.5,N,Asia/Calcutta,airport,OurAirports
1,76.4019,10.152,3136,Cochin International Airport,Kochi,India,COK,VOCI,10.152,76.401901,30,5.5,N,Asia/Calcutta,airport,OurAirports
1,76.9201,8.4821,3153,Trivandrum International Airport,Trivandrum,India,TRV,VOTV,8.48211956024,76.9200973511,15,5.5,N,Asia/Calcutta,airport,OurAirports
1,77.0405,43.3521,2908,Almaty Airport,Alma-ata,Kazakhstan,ALA,UAAA,43.35210037231445,77.040496826171875,2234,6,U,Asia/Qyzylorda,airport,OurAirports
1,77.0434,11.03,3135,Coimbatore International Airport,Coimbatore,India,CJB,VOCB,11.029999733,77.0434036255,1324,5.5,N,Asia/Calcutta,airport,OurAirports
1,77.1031,28.5665,3093,Indira Gandhi International Airport,Delhi,India,DEL,VIDP,28.5665,77.103104,777,5.5,N,Asia/Calcutta,airport,OurAirports
1,77.7063,13.1979,3131,Kempegowda International Airport,Bangalore,India,BLR,VOBL,13.1979,77.706299,3000,5.5,N,Asia/Calcutta,airport,OurAirports
1,78.4299,17.2313,12087,Rajiv Gandhi International Airport,Hyderabad,India,HYD,VOHS,17.2313175201,78.4298553467,2024,5.5,N,NA,airport,OurAirports
1,79.8841,7.1808,3024,Bandaranaike International Colombo Airport,Colombo,Sri Lanka,CMB,VCBI,7.180759906768799,79.88410186767578,30,5.5,U,Asia/Colombo,airport,OurAirports
1,80.1693,12.99,3144,Chennai International Airport,Madras,India,MAA,VOMM,12.990005493164062,80.16929626464844,52,5.5,N,Asia/Calcutta,airport,OurAirports
1,82.6507,55.0126,4078,Tolmachevo Airport,Novosibirsk,Russia,OVB,UNNT,55.012599945068,82.650703430176,365,7,N,Asia/Krasnoyarsk,airport,OurAirports
1,83.2245,17.7212,3066,Vishakhapatnam Airport,Vishakhapatnam,India,VTZ,VEVZ,17.721200943,83.2245025635,15,5.5,N,Asia/Calcutta,airport,OurAirports
1,85.3591,27.6966,3125,Tribhuvan International Airport,Kathmandu,Nepal,KTM,VNKT,27.6966,85.3591,4390,5.75,N,Asia/Katmandu,airport,OurAirports
1,88.4467,22.6547,3043,Netaji Subhash Chandra Bose International Airport,Kolkata,India,CCU,VECC,22.654699325561523,88.44670104980469,16,5.5,N,Asia/Calcutta,airport,OurAirports
1,90.3978,23.8433,3076,Hazrat Shahjalal International Airport,Dhaka,Bangladesh,DAC,VGZR,23.843347,90.397783,30,6,U,Asia/Dhaka,airport,OurAirports
1,96.1332,16.9073,3239,Yangon International Airport,Yangon,Burma,RGN,VYYY,16.907300949099998,96.1332015991,109,6.5,U,Asia/Rangoon,airport,OurAirports
1,98.3169,8.1132,3179,Phuket International Airport,Phuket,Thailand,HKT,VTSP,8.1132,98.316902,82,7,U,Asia/Bangkok,airport,OurAirports
1,98.9626,18.7668,3931,Chiang Mai International Airport,Chiang Mai,Thailand,CNX,VTCC,18.766799926799997,98.962600708,1036,7,U,Asia/Bangkok,airport,OurAirports
1,100.062,9.5478,3177,Samui Airport,Ko Samui,Thailand,USM,VTSM,9.547789573669998,100.06199646,64,7,U,Asia/Bangkok,airport,OurAirports
1,100.277,5.2971,3308,Penang International Airport,Penang,Malaysia,PEN,WMKP,5.297140121459961,100.2770004272461,11,8,N,Asia/Kuala_Lumpur,airport,OurAirports
1,100.747,13.6811,3885,Suvarnabhumi Airport,Bangkok,Thailand,BKK,VTBS,13.681099891662598,100.74700164794922,5,7,U,Asia/Bangkok,airport,OurAirports
1,101.71,2.7456,3304,Kuala Lumpur International Airport,Kuala Lumpur,Malaysia,KUL,WMKK,2.745579957962,101.70999908447,69,8,N,Asia/Kuala_Lumpur,airport,OurAirports
1,102.563,17.9883,3120,Wattay International Airport,Vientiane,Laos,VTE,VLVT,17.988300323500003,102.56300354,564,7,U,Asia/Vientiane,airport,OurAirports
1,102.744,24.9924,NA,NA,NA,NA,NA,NA,NA,NA,NA,NA,NA,NA,NA,NA
1,103.813,13.4107,3035,Siem Reap International Airport,Siem-reap,Cambodia,REP,VDSR,13.410699844400002,103.81300354,60,7,U,Asia/Phnom_Penh,airport,OurAirports
1,103.947,30.5785,3395,Chengdu Shuangliu International Airport,Chengdu,China,CTU,ZUUU,30.578500747680664,103.9469985961914,1625,8,U,Asia/Shanghai,airport,OurAirports
1,103.994,1.3502,3316,Singapore Changi Airport,Singapore,Singapore,SIN,WSSS,1.35019,103.994003,22,8,N,Asia/Singapore,airport,OurAirports
1,104.844,11.5466,3034,Phnom Penh International Airport,Phnom-penh,Cambodia,PNH,VDPP,11.546600341796875,104.84400177001953,40,7,U,Asia/Phnom_Penh,airport,OurAirports
1,105.807,21.2212,3199,Noi Bai International Airport,Hanoi,Vietnam,HAN,VVNB,21.221200942993164,105.80699920654297,39,7,U,Asia/Saigon,airport,OurAirports
1,106.642,29.7192,3393,Chongqing Jiangbei International Airport,Chongqing,China,CKG,ZUCK,29.719200134277344,106.64199829101562,1365,8,U,Asia/Shanghai,airport,OurAirports
1,106.652,10.8188,3205,Tan Son Nhat International Airport,Ho Chi Minh City,Vietnam,SGN,VVTS,10.8187999725,106.652000427,33,7,U,Asia/Saigon,airport,OurAirports
1,106.656,-6.1256,3275,Soekarno-Hatta International Airport,Jakarta,Indonesia,CGK,WIII,-6.1255698204,106.65599823,34,7,N,Asia/Jakarta,airport,OurAirports
1,106.767,47.8431,3380,Chinggis Khaan International Airport,Ulan Bator,Mongolia,ULN,ZMUB,47.843102,106.766998,4364,8,U,Asia/Ulaanbaatar,airport,OurAirports
1,108.172,22.6083,3373,Nanning Wuxu Airport,Nanning,China,NNG,ZGNN,22.608299255371094,108.1719970703125,421,8,U,Asia/Shanghai,airport,OurAirports
1,108.199,16.0439,3196,Da Nang International Airport,Danang,Vietnam,DAD,VVDN,16.043899536132812,108.1989974975586,33,7,U,Asia/Saigon,airport,OurAirports
1,108.752,34.4471,3379,Xi'an Xianyang International Airport,Xi'an,China,XIY,ZLXY,34.447102,108.751999,1572,8,U,Asia/Shanghai,airport,OurAirports
1,112.787,-7.3798,3928,Juanda International Airport,Surabaya,Indonesia,SUB,WARR,-7.3798298835754395,112.78700256347656,9,7,N,Asia/Jakarta,airport,OurAirports
1,113.22,28.1892,3371,Changsha Huanghua International Airport,Changcha,China,CSX,ZGHA,28.189199447599997,113.220001221,217,8,U,Asia/Shanghai,airport,OurAirports
1,113.299,23.3924,3370,Guangzhou Baiyun International Airport,Guangzhou,China,CAN,ZGGG,23.39240074157715,113.29900360107422,50,8,U,Asia/Shanghai,airport,OurAirports
1,113.592,22.1496,3121,Macau International Airport,Macau,Macau,MFM,VMMC,22.149599,113.592003,20,8,U,Asia/Macau,airport,OurAirports
1,113.811,22.6393,3374,Shenzhen Bao'an International Airport,Shenzhen,China,SZX,ZGSZ,22.639299392700195,113.81099700927734,13,8,U,Asia/Shanghai,airport,OurAirports
1,113.841,34.5197,3375,Zhengzhou Xinzheng International Airport,Zhengzhou,China,CGO,ZHCC,34.519699096699995,113.841003418,495,8,U,Asia/Shanghai,airport,OurAirports
1,113.915,22.3089,3077,Hong Kong International Airport,Hong Kong,Hong Kong,HKG,VHHH,22.308901,113.915001,28,8,U,Asia/Hong_Kong,airport,OurAirports
2,114.089,-22.2356,3348,Learmonth Airport,Learmonth,Australia,LEA,YPLM,-22.235599517799997,114.088996887,19,8,O,Australia/Perth,airport,OurAirports
1,114.208,30.7838,3376,Wuhan Tianhe International Airport,Wuhan,China,WUH,ZHHH,30.7838,114.208,113,8,U,Asia/Shanghai,airport,OurAirports
1,115.167,-8.7482,3940,Ngurah Rai (Bali) International Airport,Denpasar,Indonesia,DPS,WADD,-8.7481698989868,115.16699981689,14,8,N,Asia/Makassar,airport,OurAirports
1,115.967,-31.9403,3351,Perth International Airport,Perth,Australia,PER,YPPH,-31.94029998779297,115.96700286865234,67,8,N,Australia/Perth,airport,OurAirports
1,116.051,5.9372,3269,Kota Kinabalu International Airport,Kota Kinabalu,Malaysia,BKI,WBKK,5.9372100830078125,116.0510025024414,10,8,N,Asia/Kuala_Lumpur,airport,OurAirports
1,116.585,40.0801,3364,Beijing Capital International Airport,Beijing,China,PEK,ZBAA,40.080101013183594,116.58499908447266,116,8,U,Asia/Shanghai,airport,OurAirports
1,118.128,24.544,3383,Xiamen Gaoqi International Airport,Xiamen,China,XMN,ZSAM,24.54400062561035,118.12799835205078,59,8,U,Asia/Shanghai,airport,OurAirports
1,118.759,9.7421,2433,Puerto Princesa Airport,Puerto Princesa,Philippines,PPS,RPVP,9.742119789123535,118.75900268554688,71,8,N,Asia/Manila,airport,OurAirports
1,118.862,31.742,3388,Nanjing Lukou Airport,Nanjing,China,NKG,ZSNJ,31.742000579833984,118.86199951171875,49,8,U,Asia/Shanghai,airport,OurAirports
1,119.663,25.9351,3385,Fuzhou Changle International Airport,Fuzhou,China,FOC,ZSFZ,25.935100555419922,119.66300201416016,46,8,U,Asia/Shanghai,airport,OurAirports
1,120.35,22.5771,2264,Kaohsiung International Airport,Kaohsiung,Taiwan,KHH,RCKH,22.57710075378418,120.3499984741211,31,8,U,Asia/Taipei,airport,OurAirports
1,120.374,36.2661,3390,Liuting Airport,Qingdao,China,TAO,ZSQD,36.2661018372,120.374000549,33,8,U,Asia/Shanghai,airport,OurAirports
1,120.434,30.2295,3386,Hangzhou Xiaoshan International Airport,Hangzhou,China,HGH,ZSHC,30.22949981689453,120.43399810791016,23,8,U,Asia/Shanghai,airport,OurAirports
1,120.532,18.1781,4202,Laoag International Airport,Laoag,Philippines,LAO,RPLI,18.1781005859375,120.53199768066406,25,8,N,Asia/Manila,airport,OurAirports
1,120.56,15.186,4140,Diosdado Macapagal International Airport,Angeles City,Philippines,CRK,RPLC,15.186,120.559998,484,8,N,Asia/Manila,airport,OurAirports
1,120.852,27.9122,6392,Wenzhou Longwan International Airport,Wenzhou,China,WNZ,ZSWZ,27.912201,120.851997,0,8,U,Asia/Shanghai,airport,OurAirports
1,121.02,14.5086,2397,Ninoy Aquino International Airport,Manila,Philippines,MNL,RPLL,14.5086,121.019997,75,8,N,Asia/Manila,airport,OurAirports
101,121.102,22.755,2262,Taitung Airport,Fengnin,Taiwan,TTT,RCFN,22.7549991607666,121.10199737548828,143,8,U,Asia/Taipei,airport,OurAirports
1,121.233,25.0777,2276,Taiwan Taoyuan International Airport,Taipei,Taiwan,TPE,RCTP,25.0777,121.233002,106,8,U,Asia/Taipei,airport,OurAirports
1,121.336,31.1979,3391,Shanghai Hongqiao International Airport,Shanghai,China,SHA,ZSSS,31.197900772094727,121.33599853515625,10,8,U,Asia/Shanghai,airport,OurAirports
1,121.539,38.9657,3404,Zhoushuizi Airport,Dalian,China,DLC,ZYTL,38.9656982421875,121.53900146484375,107,8,U,Asia/Shanghai,airport,OurAirports
1,121.552,25.0694,2275,Taipei Songshan Airport,Taipei,Taiwan,TSA,RCSS,25.069400787353516,121.552001953125,18,8,U,Asia/Taipei,airport,OurAirports
1,121.805,31.1434,3406,Shanghai Pudong International Airport,Shanghai,China,PVG,ZSPD,31.143400192260742,121.80500030517578,13,8,U,Asia/Shanghai,airport,OurAirports
1,122.376,11.6794,2430,Kalibo International Airport,Kalibo,Philippines,KLO,RPVK,11.679400444,122.375999451,14,8,N,Asia/Manila,airport,OurAirports
1,122.4934,10.833,2429,Iloilo International Airport,Iloilo,Philippines,ILO,RPVI,10.833017,122.493358,27,8,N,Asia/Manila,airport,OurAirports
1,123.015,10.7764,2423,Bacolod-Silay Airport,Bacolod,Philippines,BCD,RPVB,10.7764,123.014999,82,8,N,Asia/Manila,airport,OurAirports
1,123.483,41.6398,4144,Taoxian Airport,Shenyang,China,SHE,ZYTX,41.639801025390625,123.48300170898438,198,8,U,Asia/Shanghai,airport,OurAirports
1,123.979,10.3075,4206,Mactan Cebu International Airport,Cebu,Philippines,CEB,RPVM,10.307499885559,123.97899627686,31,8,N,Asia/Manila,airport,OurAirports
1,125.096,6.058,2402,General Santos International Airport,Romblon,Philippines,GES,RPMR,6.05800008774,125.096000671,505,8,N,Asia/Manila,airport,OurAirports
1,125.646,7.1255,4090,Francisco Bangoy International Airport,Davao,Philippines,DVO,RPMD,7.1255202293396,125.64600372314453,96,8,N,Asia/Manila,airport,OurAirports
1,126.451,37.4691,3930,Incheon International Airport,Seoul,South Korea,ICN,RKSI,37.46910095214844,126.45099639892578,23,9,U,Asia/Seoul,airport,OurAirports
1,126.791,37.5583,2378,Gimpo International Airport,Seoul,South Korea,GMP,RKSS,37.5583,126.791,59,9,U,Asia/Seoul,airport,OurAirports
1,127.646,26.1958,2384,Naha Airport,Okinawa,Japan,OKA,ROAH,26.1958007812,127.646003723,12,9,N,Asia/Tokyo,airport,OurAirports
1,128.938,35.1795,2372,Gimhae International Airport,Busan,South Korea,PUS,RKPK,35.1795005798,128.93800354,6,9,U,Asia/Seoul,airport,OurAirports
1,130.451,33.5859,2305,Fukuoka Airport,Fukuoka,Japan,FUK,RJFF,33.585899353027344,130.4510040283203,32,9,U,Asia/Tokyo,airport,OurAirports
1,134.544,7.3677,NA,NA,NA,NA,NA,NA,NA,NA,NA,NA,NA,NA,NA,NA
1,135.244,34.4273,3992,Kansai International Airport,Osaka,Japan,KIX,RJBB,34.42729949951172,135.24400329589844,26,9,U,Asia/Tokyo,airport,OurAirports
1,135.438,34.7855,2334,Osaka International Airport,Osaka,Japan,ITM,RJOO,34.785499572753906,135.43800354003906,50,9,U,Asia/Tokyo,airport,OurAirports
1,136.805,34.8584,3942,Chubu Centrair International Airport,Nagoya,Japan,NGO,RJGG,34.8583984375,136.80499267578125,15,9,U,Asia/Tokyo,airport,OurAirports
1,138.531,-34.945,3341,Adelaide International Airport,Adelaide,Australia,ADL,YPAD,-34.945,138.531006,20,9.5,O,Australia/Adelaide,airport,OurAirports
1,139.78,35.5523,2359,Tokyo Haneda International Airport,Tokyo,Japan,HND,RJTT,35.552299,139.779999,35,9,U,Asia/Tokyo,airport,OurAirports
1,140.386,35.7647,2279,Narita International Airport,Tokyo,Japan,NRT,RJAA,35.7647018433,140.386001587,141,9,U,Asia/Tokyo,airport,OurAirports
1,141.692,42.7752,2287,New Chitose Airport,Sapporo,Japan,CTS,RJCC,42.77519989013672,141.69200134277344,82,9,U,Asia/Tokyo,airport,OurAirports
1,144.469,-38.0394,3332,Avalon Airport,Avalon,Australia,AVV,YMAV,-38.039398,144.468994,35,10,O,Australia/Hobart,airport,OurAirports
1,144.796,13.4834,2246,Antonio B. Won Pat International Airport,Agana,Guam,GUM,PGUM,13.4834003448,144.796005249,298,10,U,Pacific/Guam,airport,OurAirports
1,144.843,-37.6733,3339,Melbourne International Airport,Melbourne,Australia,MEL,YMML,-37.673302,144.843002,434,10,O,Australia/Hobart,airport,OurAirports
1,145.729,15.119,2244,Saipan International Airport,Saipan,Northern Mariana Islands,SPN,PGSN,15.119,145.729004,215,10,U,Pacific/Saipan,airport,OurAirports
1,145.755,-16.8858,3322,Cairns International Airport,Cairns,Australia,CNS,YBCS,-16.885799408,145.755004883,10,10,N,Australia/Brisbane,airport,OurAirports
1,147.51,-42.8361,3336,Hobart International Airport,Hobart,Australia,HBA,YMHB,-42.836101532,147.509994507,13,10,O,Australia/Melbourne,airport,OurAirports
1,149.195,-35.3069,3355,Canberra International Airport,Canberra,Australia,CBR,YSCB,-35.30690002441406,149.19500732421875,1886,10,O,Australia/Sydney,airport,OurAirports
1,151.177,-33.9461,3361,Sydney Kingsford Smith International Airport,Sydney,Australia,SYD,YSSY,-33.94609832763672,151.177001953125,21,10,O,Australia/Sydney,airport,OurAirports
1,153.117,-27.3842,3320,Brisbane International Airport,Brisbane,Australia,BNE,YBBN,-27.384199142456055,153.11700439453125,13,10,N,Australia/Brisbane,airport,OurAirports
1,153.505,-28.1644,3321,Gold Coast Airport,Coolangatta,Australia,OOL,YBCG,-28.1644001007,153.505004883,21,10,N,Australia/Brisbane,airport,OurAirports
1,168.739,-45.0211,2030,Queenstown International Airport,Queenstown International,New Zealand,ZQN,NZQN,-45.0210990906,168.738998413,1171,12,Z,Pacific/Auckland,airport,OurAirports
1,172.532,-43.4894,2009,Christchurch International Airport,Christchurch,New Zealand,CHC,NZCH,-43.48939895629883,172.53199768066406,123,12,Z,Pacific/Auckland,airport,OurAirports
1,174.792,-37.0081,2006,Auckland International Airport,Auckland,New Zealand,AKL,NZAA,-37.008098602299995,174.792007446,23,12,Z,Pacific/Auckland,airport,OurAirports
1,174.805,-41.3272,2042,Wellington International Airport,Wellington,New Zealand,WLG,NZWN,-41.3272018433,174.804992676,41,12,Z,Pacific/Auckland,airport,OurAirports
1,177.443,-17.7554,1960,Nadi International Airport,Nandi,Fiji,NAN,NFFN,-17.755399703979492,177.4429931640625,59,12,U,Pacific/Fiji,airport,OurAirports
